"adr_inter","adresse","adrzus_int","behindertenparkplatz","bemerkung","ccmail","da","datum","datum_cms","dep","editor","erforderlichedokumente","fax","hausnummer","hindernisfreiheit","infrastruktur","isbetriebsferien_gebaeude","isbetriebsferien_schalter","kategorie","mail","name","namenzus","objectid","oeffnungszeiten_gebaeude_di","oeffnungszeiten_gebaeude_do","oeffnungszeiten_gebaeude_fr","oeffnungszeiten_gebaeude_mi","oeffnungszeiten_gebaeude_mo","oeffnungszeiten_gebaeude_sa","oeffnungszeiten_gebaeude_so","oeffnungszeiten_schalter_di","oeffnungszeiten_schalter_do","oeffnungszeiten_schalter_fr","oeffnungszeiten_schalter_mi","oeffnungszeiten_schalter_mo","oeffnungszeiten_schalter_sa","oeffnungszeiten_schalter_so","ort","plz","poi_id","postadresse","publish_internet","strasse","suchen","tel","tel2","www","zahlungsmittel_internet","zahlungsmittel_schalter","zahlungsmittel_telefon","zvv_label","zvv_link","metall","glas","oel","textilien","standort_id","behindertengerecht","geometry"
"","Dörflistrasse 90","","","","","ERZ Entsorgung + Recycling Zürich","20.03.2023 00:00","","Tiefbau- und Entsorgungsdepartement (TED)","","","","","","","","","Sammelstelle","","Dörflistasse 90 vis-à-vis Stadthof 11","","4266","","","","","","","","","","","","","","","Zürich","8050","sa61203","","1","","Sammelstelle, Sammelstellen, Glassammelstelle, Glassammelstellen, Altglas, Altöl, Recycling, Metall, Altmetall, Öl, Oel, Glas, Textilien, Wertstoff","044 417 77 77","","https://www.stadt-zuerich.ch/ted/de/index/entsorgung_recycling/entsorgen/wo-wann-entsorgen/wertstoff","","","","","","X","X","X","X","61203","","POINT Z (2683834.8 1251597.9 0)"
"","Regensbergstrasse 30","","","","","ERZ Entsorgung + Recycling Zürich","20.03.2023 00:00","","Tiefbau- und Entsorgungsdepartement (TED)","","","","","","","","","Sammelstelle","","Regensbergstrasse vis-à-vis 30","","4267","","","","","","","","","","","","","","","Zürich","8050","sa43022","","1","","Sammelstelle, Sammelstellen, Glassammelstelle, Glassammelstellen, Altglas, Altöl, Recycling, Metall, Altmetall, Öl, Oel, Glas, Textilien, Wertstoff","044 417 77 77","","https://www.stadt-zuerich.ch/ted/de/index/entsorgung_recycling/entsorgen/wo-wann-entsorgen/wertstoff","","","","","","X","X","","X","43022","","POINT Z (2684209 1251024.9 0)"
"","Hagenholzstrasse 110","","","","","ERZ Entsorgung + Recycling Zürich","20.03.2023 00:00","","Tiefbau- und Entsorgungsdepartement (TED)","","","","","","","","","Sammelstelle","","Hagenholzstrasse 110","","4268","","","","","","","","","","","","","","","Zürich","8050","sa43036","","1","","Sammelstelle, Sammelstellen, Glassammelstelle, Glassammelstellen, Altglas, Altöl, Recycling, Metall, Altmetall, Öl, Oel, Glas, Textilien, Wertstoff","044 417 77 77","","https://www.stadt-zuerich.ch/ted/de/index/entsorgung_recycling/entsorgen/wo-wann-entsorgen/wertstoff","","","","","","X","X","X","X","43036","X","POINT Z (2684920 1252240.9 0)"
"","Neunbrunnenstrasse 60","","","","","ERZ Entsorgung + Recycling Zürich","20.03.2023 00:00","","Tiefbau- und Entsorgungsdepartement (TED)","","","","","","","","","Sammelstelle","","Neunbrunnenstrasse 60","","4269","","","","","","","","","","","","","","","Zürich","8050","sa42918","","1","","Sammelstelle, Sammelstellen, Glassammelstelle, Glassammelstellen, Altglas, Altöl, Recycling, Metall, Altmetall, Öl, Oel, Glas, Textilien, Wertstoff","044 417 77 77","","https://www.stadt-zuerich.ch/ted/de/index/entsorgung_recycling/entsorgen/wo-wann-entsorgen/wertstoff","","","","","","X","X","","","42918","X","POINT Z (2682899 1252385.9 0)"
"","Opfikonstrasse 18","","","","","ERZ Entsorgung + Recycling Zürich","20.03.2023 00:00","","Tiefbau- und Entsorgungsdepartement (TED)","","","","","","","","","Sammelstelle","","Opfikonstrasse 18","","4270","","","","","","","","","","","","","","","Zürich","8050","sa43039","","1","","Sammelstelle, Sammelstellen, Glassammelstelle, Glassammelstellen, Altglas, Altöl, Recycling, Metall, Altmetall, Öl, Oel, Glas, Textilien, Wertstoff","044 417 77 77","","https://www.stadt-zuerich.ch/ted/de/index/entsorgung_recycling/entsorgen/wo-wann-entsorgen/wertstoff","","","","","","X","X","","X","43039","","POINT Z (2685542 1252027.9 0)"
"","Tramstrasse 208","","","","","ERZ Entsorgung + Recycling Zürich","20.03.2023 00:00","","Tiefbau- und Entsorgungsdepartement (TED)","","","","","","","","","Sammelstelle","","Tramstrasse vis-à-vis 208","","4271","","","","","","","","","","","","","","","Zürich","8050","sa43040","","1","","Sammelstelle, Sammelstellen, Glassammelstelle, Glassammelstellen, Altglas, Altöl, Recycling, Metall, Altmetall, Öl, Oel, Glas, Textilien, Wertstoff","044 417 77 77","","https://www.stadt-zuerich.ch/ted/de/index/entsorgung_recycling/entsorgen/wo-wann-entsorgen/wertstoff","","","","","","X","X","","X","43040","","POINT Z (2684762 1251446.9 0)"
"","Binzmühlestrasse 210","","","","","ERZ Entsorgung + Recycling Zürich","20.03.2023 00:00","","Tiefbau- und Entsorgungsdepartement (TED)","","","","","","","","","Sammelstelle","","Binzmühlestrasse 210","","4272","","","","","","","","","","","","","","","Zürich","8050","sa43012","","1","","Sammelstelle, Sammelstellen, Glassammelstelle, Glassammelstellen, Altglas, Altöl, Recycling, Metall, Altmetall, Öl, Oel, Glas, Textilien, Wertstoff","044 417 77 77","","https://www.stadt-zuerich.ch/ted/de/index/entsorgung_recycling/entsorgen/wo-wann-entsorgen/wertstoff","","","","","","X","X","","X","43012","X","POINT Z (2682424 1251980.9 0)"
"","Meinrad-Lienert-Strasse 1","","","","","ERZ Entsorgung + Recycling Zürich","20.03.2023 00:00","","Tiefbau- und Entsorgungsdepartement (TED)","","","","","","","","","Sammelstelle","","Meinrad-Lienert-Strasse vis-à-vis 1","","4273","","","","","","","","","","","","","","","Zürich","8003","sa42829","","1","","Sammelstelle, Sammelstellen, Glassammelstelle, Glassammelstellen, Altglas, Altöl, Recycling, Metall, Altmetall, Öl, Oel, Glas, Textilien, Wertstoff","044 417 77 77","","https://www.stadt-zuerich.ch/ted/de/index/entsorgung_recycling/entsorgen/wo-wann-entsorgen/wertstoff","","","","","","X","X","","X","42829","","POINT Z (2681600 1247594.8 0)"
"","Seebahnstrasse 89","","","","","ERZ Entsorgung + Recycling Zürich","20.03.2023 00:00","","Tiefbau- und Entsorgungsdepartement (TED)","","","","","","","","","Sammelstelle","","Seebahnstrasse 89 vis-à-vis Post","","4274","","","","","","","","","","","","","","","Zürich","8003","sa42828","","1","","Sammelstelle, Sammelstellen, Glassammelstelle, Glassammelstellen, Altglas, Altöl, Recycling, Metall, Altmetall, Öl, Oel, Glas, Textilien, Wertstoff","044 417 77 77","","https://www.stadt-zuerich.ch/ted/de/index/entsorgung_recycling/entsorgen/wo-wann-entsorgen/wertstoff","","","","","","X","X","","X","42828","","POINT Z (2681837.8 1247328.4 0)"
"","Käferholzstrasse 44","","","","","ERZ Entsorgung + Recycling Zürich","20.03.2023 00:00","","Tiefbau- und Entsorgungsdepartement (TED)","","","","","","","","","Sammelstelle","","Käferholzstrasse 44","","4275","","","","","","","","","","","","","","","Zürich","8037","sa42920","","1","","Sammelstelle, Sammelstellen, Glassammelstelle, Glassammelstellen, Altglas, Altöl, Recycling, Metall, Altmetall, Öl, Oel, Glas, Textilien, Wertstoff","044 417 77 77","","https://www.stadt-zuerich.ch/ted/de/index/entsorgung_recycling/entsorgen/wo-wann-entsorgen/wertstoff","","","","","","X","X","","X","42920","","POINT Z (2682414.2 1250771.4 0)"
"","Moussonstrasse 22","","","","","ERZ Entsorgung + Recycling Zürich","20.03.2023 00:00","","Tiefbau- und Entsorgungsdepartement (TED)","","","","","","","","","Sammelstelle","","Moussonstrasse 22","","4276","","","","","","","","","","","","","","","Zürich","8044","sa42936","","1","","Sammelstelle, Sammelstellen, Glassammelstelle, Glassammelstellen, Altglas, Altöl, Recycling, Metall, Altmetall, Öl, Oel, Glas, Textilien, Wertstoff","044 417 77 77","","https://www.stadt-zuerich.ch/ted/de/index/entsorgung_recycling/entsorgen/wo-wann-entsorgen/wertstoff","","","","","","X","X","","X","42936","","POINT Z (2684296 1247902.9 0)"
"","Weihersteig 7","","","","","ERZ Entsorgung + Recycling Zürich","20.03.2023 00:00","","Tiefbau- und Entsorgungsdepartement (TED)","","","","","","","","","Sammelstelle","","Weihersteig 7","","4277","","","","","","","","","","","","","","","Zürich","8037","sa43001","","1","","Sammelstelle, Sammelstellen, Glassammelstelle, Glassammelstellen, Altglas, Altöl, Recycling, Metall, Altmetall, Öl, Oel, Glas, Textilien, Wertstoff","044 417 77 77","","https://www.stadt-zuerich.ch/ted/de/index/entsorgung_recycling/entsorgen/wo-wann-entsorgen/wertstoff","","","","","","X","X","","X","43001","","POINT Z (2682187 1250162.9 0)"
"","Aegertenstrasse 16","","","","","ERZ Entsorgung + Recycling Zürich","20.03.2023 00:00","","Tiefbau- und Entsorgungsdepartement (TED)","","","","","","","","","Sammelstelle","","Aegertenstrasse vis-à-vis 16","","4278","","","","","","","","","","","","","","","Zürich","8003","sa41374","","1","","Sammelstelle, Sammelstellen, Glassammelstelle, Glassammelstellen, Altglas, Altöl, Recycling, Metall, Altmetall, Öl, Oel, Glas, Textilien, Wertstoff","044 417 77 77","","https://www.stadt-zuerich.ch/ted/de/index/entsorgung_recycling/entsorgen/wo-wann-entsorgen/wertstoff","","","","","","X","X","","X","41374","X","POINT Z (2681904.2 1247020 0)"
"","Riedenhaldenstrasse 280","","","","","ERZ Entsorgung + Recycling Zürich","20.03.2023 00:00","","Tiefbau- und Entsorgungsdepartement (TED)","","","","","","","","","Sammelstelle","","Riedenhaldenstrasse 280","","4279","","","","","","","","","","","","","","","Zürich","8046","sa43005","","1","","Sammelstelle, Sammelstellen, Glassammelstelle, Glassammelstellen, Altglas, Altöl, Recycling, Metall, Altmetall, Öl, Oel, Glas, Textilien, Wertstoff","044 417 77 77","","https://www.stadt-zuerich.ch/ted/de/index/entsorgung_recycling/entsorgen/wo-wann-entsorgen/wertstoff","","","","","","X","X","X","X","43005","X","POINT Z (2680801 1252748.9 0)"
"","Wehntalerstrasse 440","","","","","ERZ Entsorgung + Recycling Zürich","20.03.2023 00:00","","Tiefbau- und Entsorgungsdepartement (TED)","","","","","","","","","Sammelstelle","","Wehntalerstrasse 440","","4310","","","","","","","","","","","","","","","Zürich","8046","sa43047","","1","","Sammelstelle, Sammelstellen, Glassammelstelle, Glassammelstellen, Altglas, Altöl, Recycling, Metall, Altmetall, Öl, Oel, Glas, Textilien, Wertstoff","044 417 77 77","","https://www.stadt-zuerich.ch/ted/de/index/entsorgung_recycling/entsorgen/wo-wann-entsorgen/wertstoff","","","","","","X","X","","X","43047","X","POINT Z (2681143 1252192.9 0)"
"","General-Guisan-Quai 31","","","","","ERZ Entsorgung + Recycling Zürich","20.03.2023 00:00","","Tiefbau- und Entsorgungsdepartement (TED)","","","","","","","","","Sammelstelle","","General-Guisan-Quai 31","","4311","","","","","","","","","","","","","","","Zürich","8002","sa46865","","1","","Sammelstelle, Sammelstellen, Glassammelstelle, Glassammelstellen, Altglas, Altöl, Recycling, Metall, Altmetall, Öl, Oel, Glas, Textilien, Wertstoff","044 417 77 77","","https://www.stadt-zuerich.ch/ted/de/index/entsorgung_recycling/entsorgen/wo-wann-entsorgen/wertstoff","","","","","","","X","","","46865","","POINT Z (2682949.5 1246513 0)"
"","Mythenquai 1","","","","","ERZ Entsorgung + Recycling Zürich","20.03.2023 00:00","","Tiefbau- und Entsorgungsdepartement (TED)","","","","","","","","","Sammelstelle","","Mythenquai 1","","4312","","","","","","","","","","","","","","","Zürich","8002","sa46856","","1","","Sammelstelle, Sammelstellen, Glassammelstelle, Glassammelstellen, Altglas, Altöl, Recycling, Metall, Altmetall, Öl, Oel, Glas, Textilien, Wertstoff","044 417 77 77","","https://www.stadt-zuerich.ch/ted/de/index/entsorgung_recycling/entsorgen/wo-wann-entsorgen/wertstoff","","","","","","","X","","","46856","","POINT Z (2682863.8 1246295.9 0)"
"","General-Guisan-Quai 37","","","","","ERZ Entsorgung + Recycling Zürich","20.03.2023 00:00","","Tiefbau- und Entsorgungsdepartement (TED)","","","","","","","","","Sammelstelle","","General-Guisan-Quai 37","","4313","","","","","","","","","","","","","","","Zürich","8002","sa46855","","1","","Sammelstelle, Sammelstellen, Glassammelstelle, Glassammelstellen, Altglas, Altöl, Recycling, Metall, Altmetall, Öl, Oel, Glas, Textilien, Wertstoff","044 417 77 77","","https://www.stadt-zuerich.ch/ted/de/index/entsorgung_recycling/entsorgen/wo-wann-entsorgen/wertstoff","","","","","","","X","","","46855","","POINT Z (2682866.5 1246445.6 0)"
"","Mythenquai 21","","","","","ERZ Entsorgung + Recycling Zürich","20.03.2023 00:00","","Tiefbau- und Entsorgungsdepartement (TED)","","","","","","","","","Sammelstelle","","Mythenquai 21","","4314","","","","","","","","","","","","","","","Zürich","8002","sa46857","","1","","Sammelstelle, Sammelstellen, Glassammelstelle, Glassammelstellen, Altglas, Altöl, Recycling, Metall, Altmetall, Öl, Oel, Glas, Textilien, Wertstoff","044 417 77 77","","https://www.stadt-zuerich.ch/ted/de/index/entsorgung_recycling/entsorgen/wo-wann-entsorgen/wertstoff","","","","","","","X","","","46857","","POINT Z (2682894.5 1246167.5 0)"
"","Schwandenholzstrasse 194","","","","","ERZ Entsorgung + Recycling Zürich","20.03.2023 00:00","","Tiefbau- und Entsorgungsdepartement (TED)","","","","","","","","","Sammelstelle","","Schwandenholzstrasse 194","","4315","","","","","","","","","","","","","","","Zürich","8046","sa46793","","1","","Sammelstelle, Sammelstellen, Glassammelstelle, Glassammelstellen, Altglas, Altöl, Recycling, Metall, Altmetall, Öl, Oel, Glas, Textilien, Wertstoff","044 417 77 77","","https://www.stadt-zuerich.ch/ted/de/index/entsorgung_recycling/entsorgen/wo-wann-entsorgen/wertstoff","","","","","","X","X","","X","46793","X","POINT Z (2681828.5 1253124.5 0)"
"","Brunaustrasse 6","","","","","ERZ Entsorgung + Recycling Zürich","20.03.2023 00:00","","Tiefbau- und Entsorgungsdepartement (TED)","","","","","","","","","Sammelstelle","","Brunaustrasse 6","","4316","","","","","","","","","","","","","","","Zürich","8002","sa42815","","1","","Sammelstelle, Sammelstellen, Glassammelstelle, Glassammelstellen, Altglas, Altöl, Recycling, Metall, Altmetall, Öl, Oel, Glas, Textilien, Wertstoff","044 417 77 77","","https://www.stadt-zuerich.ch/ted/de/index/entsorgung_recycling/entsorgen/wo-wann-entsorgen/wertstoff","","","","","","X","X","X","X","42815","","POINT Z (2682608 1245666.9 0)"
"","Hardturmstrasse 126","","","","","ERZ Entsorgung + Recycling Zürich","20.03.2023 00:00","","Tiefbau- und Entsorgungsdepartement (TED)","","","","","","","","","Sammelstelle","","Hardturmstrasse 126","","4317","","","","","","","","","","","","","","","Zürich","8005","sa42888","","1","","Sammelstelle, Sammelstellen, Glassammelstelle, Glassammelstellen, Altglas, Altöl, Recycling, Metall, Altmetall, Öl, Oel, Glas, Textilien, Wertstoff","044 417 77 77","","https://www.stadt-zuerich.ch/ted/de/index/entsorgung_recycling/entsorgen/wo-wann-entsorgen/wertstoff","","","","","","X","X","","X","42888","X","POINT Z (2681100.5 1249780.5 0)"
"","Bachtobelstrasse 10","","","","","ERZ Entsorgung + Recycling Zürich","20.03.2023 00:00","","Tiefbau- und Entsorgungsdepartement (TED)","","","","","","","","","Sammelstelle","","Bachtobelstr. vis-à-vis 10","","4318","","","","","","","","","","","","","","","Zürich","8045","sa42822","","1","","Sammelstelle, Sammelstellen, Glassammelstelle, Glassammelstellen, Altglas, Altöl, Recycling, Metall, Altmetall, Öl, Oel, Glas, Textilien, Wertstoff","044 417 77 77","","https://www.stadt-zuerich.ch/ted/de/index/entsorgung_recycling/entsorgen/wo-wann-entsorgen/wertstoff","","","","","","X","X","","X","42822","","POINT Z (2681464 1246164.9 0)"
"","Heinrichstrasse 200","","","","","ERZ Entsorgung + Recycling Zürich","20.03.2023 00:00","","Tiefbau- und Entsorgungsdepartement (TED)","","","","","","","","","Sammelstelle","","Heinrichstrasse 200 unter Viadukt","","4319","","","","","","","","","","","","","","","Zürich","8005","sa42887","","1","","Sammelstelle, Sammelstellen, Glassammelstelle, Glassammelstellen, Altglas, Altöl, Recycling, Metall, Altmetall, Öl, Oel, Glas, Textilien, Wertstoff","044 417 77 77","","https://www.stadt-zuerich.ch/ted/de/index/entsorgung_recycling/entsorgen/wo-wann-entsorgen/wertstoff","","","","","","X","X","X","X","42887","X","POINT Z (2682079 1249081.9 0)"
"","Schweighofstrasse 357","","","","","ERZ Entsorgung + Recycling Zürich","20.03.2023 00:00","","Tiefbau- und Entsorgungsdepartement (TED)","","","","","","","","","Sammelstelle","","Schweighofstr. 357","","4320","","","","","","","","","","","","","","","Zürich","8055","sa42823","","1","","Sammelstelle, Sammelstellen, Glassammelstelle, Glassammelstellen, Altglas, Altöl, Recycling, Metall, Altmetall, Öl, Oel, Glas, Textilien, Wertstoff","044 417 77 77","","https://www.stadt-zuerich.ch/ted/de/index/entsorgung_recycling/entsorgen/wo-wann-entsorgen/wertstoff","","","","","","X","X","X","X","42823","","POINT Z (2680345 1246573.9 0)"
"","Birmensdorferstrasse 488","","","","","ERZ Entsorgung + Recycling Zürich","20.03.2023 00:00","","Tiefbau- und Entsorgungsdepartement (TED)","","","","","","","","","Sammelstelle","","Birmensdorferstr. 488","","4321","","","","","","","","","","","","","","","Zürich","8055","sa42901","","1","","Sammelstelle, Sammelstellen, Glassammelstelle, Glassammelstellen, Altglas, Altöl, Recycling, Metall, Altmetall, Öl, Oel, Glas, Textilien, Wertstoff","044 417 77 77","","https://www.stadt-zuerich.ch/ted/de/index/entsorgung_recycling/entsorgen/wo-wann-entsorgen/wertstoff","","","","","","X","X","X","X","42901","","POINT Z (2679862 1246960.9 0)"
"","Letzigraben 104","","","","","ERZ Entsorgung + Recycling Zürich","20.03.2023 00:00","","Tiefbau- und Entsorgungsdepartement (TED)","","","","","","","","","Sammelstelle","","Letzigraben 104","","4322","","","","","","","","","","","","","","","Zürich","8047","sa42905","","1","","Sammelstelle, Sammelstellen, Glassammelstelle, Glassammelstellen, Altglas, Altöl, Recycling, Metall, Altmetall, Öl, Oel, Glas, Textilien, Wertstoff","044 417 77 77","","https://www.stadt-zuerich.ch/ted/de/index/entsorgung_recycling/entsorgen/wo-wann-entsorgen/wertstoff","","","","","","X","X","","X","42905","","POINT Z (2680025.2 1247939 0)"
"","Albisriederstrasse 334","","","","","ERZ Entsorgung + Recycling Zürich","20.03.2023 00:00","","Tiefbau- und Entsorgungsdepartement (TED)","","","","","","","","","Sammelstelle","","Albisriederstrasse 334","","4323","","","","","","","","","","","","","","","Zürich","8047","sa42902","","1","","Sammelstelle, Sammelstellen, Glassammelstelle, Glassammelstellen, Altglas, Altöl, Recycling, Metall, Altmetall, Öl, Oel, Glas, Textilien, Wertstoff","044 417 77 77","","https://www.stadt-zuerich.ch/ted/de/index/entsorgung_recycling/entsorgen/wo-wann-entsorgen/wertstoff","","","","","","X","X","X","X","42902","X","POINT Z (2679200 1247754.9 0)"
"","Triemlistrasse 22","","","","","ERZ Entsorgung + Recycling Zürich","20.03.2023 00:00","","Tiefbau- und Entsorgungsdepartement (TED)","","","","","","","","","Sammelstelle","","Triemlistrasse 22","","4356","","","","","","","","","","","","","","","Zürich","8047","sa42903","","1","","Sammelstelle, Sammelstellen, Glassammelstelle, Glassammelstellen, Altglas, Altöl, Recycling, Metall, Altmetall, Öl, Oel, Glas, Textilien, Wertstoff","044 417 77 77","","https://www.stadt-zuerich.ch/ted/de/index/entsorgung_recycling/entsorgen/wo-wann-entsorgen/wertstoff","","","","","","X","X","","X","42903","","POINT Z (2678965 1247488.9 0)"
"","Mythenquai 317","","","","","ERZ Entsorgung + Recycling Zürich","20.03.2023 00:00","","Tiefbau- und Entsorgungsdepartement (TED)","","","","","","","","","Sammelstelle","","Mythenquai 317","","4357","","","","","","","","","","","","","","","Zürich","8038","sa46858","","1","","Sammelstelle, Sammelstellen, Glassammelstelle, Glassammelstellen, Altglas, Altöl, Recycling, Metall, Altmetall, Öl, Oel, Glas, Textilien, Wertstoff","044 417 77 77","","https://www.stadt-zuerich.ch/ted/de/index/entsorgung_recycling/entsorgen/wo-wann-entsorgen/wertstoff","","","","","","","X","","","46858","","POINT Z (2682863.5 1244796.6 0)"
"","Mythenquai 307","","","","","ERZ Entsorgung + Recycling Zürich","20.03.2023 00:00","","Tiefbau- und Entsorgungsdepartement (TED)","","","","","","","","","Sammelstelle","","Mythenquai 307","","4358","","","","","","","","","","","","","","","Zürich","8038","sa46864","","1","","Sammelstelle, Sammelstellen, Glassammelstelle, Glassammelstellen, Altglas, Altöl, Recycling, Metall, Altmetall, Öl, Oel, Glas, Textilien, Wertstoff","044 417 77 77","","https://www.stadt-zuerich.ch/ted/de/index/entsorgung_recycling/entsorgen/wo-wann-entsorgen/wertstoff","","","","","","","X","","","46864","","POINT Z (2682897.8 1245054.1 0)"
"","Mühlezelgstrasse 1a","","","","","ERZ Entsorgung + Recycling Zürich","20.03.2023 00:00","","Tiefbau- und Entsorgungsdepartement (TED)","","","","","","","","","Sammelstelle","","Mühlezelgstrasse 1a","","4359","","","","","","","","","","","","","","","Zürich","8047","sa42906","","1","","Sammelstelle, Sammelstellen, Glassammelstelle, Glassammelstellen, Altglas, Altöl, Recycling, Metall, Altmetall, Öl, Oel, Glas, Textilien, Wertstoff","044 417 77 77","","https://www.stadt-zuerich.ch/ted/de/index/entsorgung_recycling/entsorgen/wo-wann-entsorgen/wertstoff","","","","","","X","X","","X","42906","X","POINT Z (2679882 1247733.9 0)"
"","Alte Kalchbühlstrasse 15","","","","","ERZ Entsorgung + Recycling Zürich","20.03.2023 00:00","","Tiefbau- und Entsorgungsdepartement (TED)","","","","","","","","","Sammelstelle","","Alte Kalchbühlstrasse 15","","4360","","","","","","","","","","","","","","","Zürich","8038","sa42624","","1","","Sammelstelle, Sammelstellen, Glassammelstelle, Glassammelstellen, Altglas, Altöl, Recycling, Metall, Altmetall, Öl, Oel, Glas, Textilien, Wertstoff","044 417 77 77","","https://www.stadt-zuerich.ch/ted/de/index/entsorgung_recycling/entsorgen/wo-wann-entsorgen/wertstoff","","","","","","X","X","X","X","42624","X","POINT Z (2682512 1243790.9 0)"
"","Loogartenstrasse 37","","","","","ERZ Entsorgung + Recycling Zürich","20.03.2023 00:00","","Tiefbau- und Entsorgungsdepartement (TED)","","","","","","","","","Sammelstelle","","Loogartenstrasse 37","","4361","","","","","","","","","","","","","","","Zürich","8048","sa42907","","1","","Sammelstelle, Sammelstellen, Glassammelstelle, Glassammelstellen, Altglas, Altöl, Recycling, Metall, Altmetall, Öl, Oel, Glas, Textilien, Wertstoff","044 417 77 77","","https://www.stadt-zuerich.ch/ted/de/index/entsorgung_recycling/entsorgen/wo-wann-entsorgen/wertstoff","","","","","","X","X","X","X","42907","","POINT Z (2678077 1249206.9 0)"
"","Hohlstrasse 665","","","","","ERZ Entsorgung + Recycling Zürich","20.03.2023 00:00","","Tiefbau- und Entsorgungsdepartement (TED)","","","","","","","","","Sammelstelle","","Hohlstrasse 665","","4362","","","","","","","","","","","","","","","Zürich","8048","sa66328","","1","","Sammelstelle, Sammelstellen, Glassammelstelle, Glassammelstellen, Altglas, Altöl, Recycling, Metall, Altmetall, Öl, Oel, Glas, Textilien, Wertstoff","044 417 77 77","","https://www.stadt-zuerich.ch/ted/de/index/entsorgung_recycling/entsorgen/wo-wann-entsorgen/wertstoff","","","","","","X","X","","X","66328","X","POINT Z (2678727 1249497.6 0)"
"","Rautistrasse 77","","","","","ERZ Entsorgung + Recycling Zürich","20.03.2023 00:00","","Tiefbau- und Entsorgungsdepartement (TED)","","","","","","","","","Sammelstelle","","Rautistrasse 77","","4363","","","","","","","","","","","","","","","Zürich","8048","sa60840","","1","","Sammelstelle, Sammelstellen, Glassammelstelle, Glassammelstellen, Altglas, Altöl, Recycling, Metall, Altmetall, Öl, Oel, Glas, Textilien, Wertstoff","044 417 77 77","","https://www.stadt-zuerich.ch/ted/de/index/entsorgung_recycling/entsorgen/wo-wann-entsorgen/wertstoff","","","","","","X","X","","X","60840","X","POINT Z (2679243.5 1248348.4 0)"
"","Paradiesstrasse 45","","","","","ERZ Entsorgung + Recycling Zürich","20.03.2023 00:00","","Tiefbau- und Entsorgungsdepartement (TED)","","","","","","","","","Sammelstelle","","Paradiesstrasse 45","","4364","","","","","","","","","","","","","","","Zürich","8038","sa42808","","1","","Sammelstelle, Sammelstellen, Glassammelstelle, Glassammelstellen, Altglas, Altöl, Recycling, Metall, Altmetall, Öl, Oel, Glas, Textilien, Wertstoff","044 417 77 77","","https://www.stadt-zuerich.ch/ted/de/index/entsorgung_recycling/entsorgen/wo-wann-entsorgen/wertstoff","","","","","","X","X","","X","42808","","POINT Z (2682305 1243237.9 0)"
"","Dachslernstrasse 9","","","","","ERZ Entsorgung + Recycling Zürich","20.03.2023 00:00","","Tiefbau- und Entsorgungsdepartement (TED)","","","","","","","","","Sammelstelle","","Dachslernstrasse vis à vis 9","","4365","","","","","","","","","","","","","","","Zürich","8048","sa42908","","1","","Sammelstelle, Sammelstellen, Glassammelstelle, Glassammelstellen, Altglas, Altöl, Recycling, Metall, Altmetall, Öl, Oel, Glas, Textilien, Wertstoff","044 417 77 77","","https://www.stadt-zuerich.ch/ted/de/index/entsorgung_recycling/entsorgen/wo-wann-entsorgen/wertstoff","","","","","","X","X","X","X","42908","","POINT Z (2678697 1249144.9 0)"
"","Eugen-Huber-Strasse 4","","","","","ERZ Entsorgung + Recycling Zürich","20.03.2023 00:00","","Tiefbau- und Entsorgungsdepartement (TED)","","","","","","","","","Sammelstelle","","Eugen-Huber-Strasse 4","","4366","","","","","","","","","","","","","","","Zürich","8048","sa42911","","1","","Sammelstelle, Sammelstellen, Glassammelstelle, Glassammelstellen, Altglas, Altöl, Recycling, Metall, Altmetall, Öl, Oel, Glas, Textilien, Wertstoff","044 417 77 77","","https://www.stadt-zuerich.ch/ted/de/index/entsorgung_recycling/entsorgen/wo-wann-entsorgen/wertstoff","","","","","","X","X","","X","42911","","POINT Z (2679133 1248721.9 0)"
"","Altstetterstrasse 162","","","","","ERZ Entsorgung + Recycling Zürich","20.03.2023 00:00","","Tiefbau- und Entsorgungsdepartement (TED)","","","","","","","","","Sammelstelle","","Altstetterstr. 162","","4367","","","","","","","","","","","","","","","Zürich","8048","sa42910","","1","","Sammelstelle, Sammelstellen, Glassammelstelle, Glassammelstellen, Altglas, Altöl, Recycling, Metall, Altmetall, Öl, Oel, Glas, Textilien, Wertstoff","044 417 77 77","","https://www.stadt-zuerich.ch/ted/de/index/entsorgung_recycling/entsorgen/wo-wann-entsorgen/wertstoff","","","","","","X","X","","","42910","","POINT Z (2679064 1249008.9 0)"
"","Stiglenstrasse 50","","","","","ERZ Entsorgung + Recycling Zürich","20.03.2023 00:00","","Tiefbau- und Entsorgungsdepartement (TED)","","","","","","","","","Sammelstelle","","Stiglenstrasse 50","","4368","","","","","","","","","","","","","","","Zürich","8052","sa43032","","1","","Sammelstelle, Sammelstellen, Glassammelstelle, Glassammelstellen, Altglas, Altöl, Recycling, Metall, Altmetall, Öl, Oel, Glas, Textilien, Wertstoff","044 417 77 77","","https://www.stadt-zuerich.ch/ted/de/index/entsorgung_recycling/entsorgen/wo-wann-entsorgen/wertstoff","","","","","","X","X","","X","43032","X","POINT Z (2683677 1253573.9 0)"
"","Hardgutstrasse 9","","","","","ERZ Entsorgung + Recycling Zürich","20.03.2023 00:00","","Tiefbau- und Entsorgungsdepartement (TED)","","","","","","","","","Sammelstelle","","Hardgutstrasse vis-à-vis 9","","4369","","","","","","","","","","","","","","","Zürich","8048","sa42909","","1","","Sammelstelle, Sammelstellen, Glassammelstelle, Glassammelstellen, Altglas, Altöl, Recycling, Metall, Altmetall, Öl, Oel, Glas, Textilien, Wertstoff","044 417 77 77","","https://www.stadt-zuerich.ch/ted/de/index/entsorgung_recycling/entsorgen/wo-wann-entsorgen/wertstoff","","","","","","X","X","X","X","42909","","POINT Z (2680455 1248841.2 0)"
"","Rautistrasse 345","","","","","ERZ Entsorgung + Recycling Zürich","20.03.2023 00:00","","Tiefbau- und Entsorgungsdepartement (TED)","","","","","","","","","Sammelstelle","","Rautistrasse 345","","4402","","","","","","","","","","","","","","","Zürich","8048","sa42912","","1","","Sammelstelle, Sammelstellen, Glassammelstelle, Glassammelstellen, Altglas, Altöl, Recycling, Metall, Altmetall, Öl, Oel, Glas, Textilien, Wertstoff","044 417 77 77","","https://www.stadt-zuerich.ch/ted/de/index/entsorgung_recycling/entsorgen/wo-wann-entsorgen/wertstoff","","","","","","X","X","","X","42912","","POINT Z (2678094 1248975.9 0)"
"","Etzelstrasse 6","","","","","ERZ Entsorgung + Recycling Zürich","20.03.2023 00:00","","Tiefbau- und Entsorgungsdepartement (TED)","","","","","","","","","Sammelstelle","","Etzelstrasse vis-à-vis 6","","4403","","","","","","","","","","","","","","","Zürich","8038","sa42806","","1","","Sammelstelle, Sammelstellen, Glassammelstelle, Glassammelstellen, Altglas, Altöl, Recycling, Metall, Altmetall, Öl, Oel, Glas, Textilien, Wertstoff","044 417 77 77","","https://www.stadt-zuerich.ch/ted/de/index/entsorgung_recycling/entsorgen/wo-wann-entsorgen/wertstoff","","","","","","X","X","","X","42806","X","POINT Z (2682514 1244319.9 0)"
"","Tannenrauchstrasse 116","","","","","ERZ Entsorgung + Recycling Zürich","20.03.2023 00:00","","Tiefbau- und Entsorgungsdepartement (TED)","","","","","","","","","Sammelstelle","","Tannenrauchstrasse 116","","4404","","","","","","","","","","","","","","","Zürich","8038","sa42785","","1","","Sammelstelle, Sammelstellen, Glassammelstelle, Glassammelstellen, Altglas, Altöl, Recycling, Metall, Altmetall, Öl, Oel, Glas, Textilien, Wertstoff","044 417 77 77","","https://www.stadt-zuerich.ch/ted/de/index/entsorgung_recycling/entsorgen/wo-wann-entsorgen/wertstoff","","","","","","X","X","","X","42785","X","POINT Z (2682484.8 1244106.5 0)"
"","Salomon-Vögelin-Strasse 3","","","","","ERZ Entsorgung + Recycling Zürich","20.03.2023 00:00","","Tiefbau- und Entsorgungsdepartement (TED)","","","","","","","","","Sammelstelle","","Salomon-Vögelin-Strasse 3","","4405","","","","","","","","","","","","","","","Zürich","8038","sa42809","","1","","Sammelstelle, Sammelstellen, Glassammelstelle, Glassammelstellen, Altglas, Altöl, Recycling, Metall, Altmetall, Öl, Oel, Glas, Textilien, Wertstoff","044 417 77 77","","https://www.stadt-zuerich.ch/ted/de/index/entsorgung_recycling/entsorgen/wo-wann-entsorgen/wertstoff","","","","","","X","X","","X","42809","","POINT Z (2682213 1244567.9 0)"
"","Morgentalstrasse 73","","","","","ERZ Entsorgung + Recycling Zürich","20.03.2023 00:00","","Tiefbau- und Entsorgungsdepartement (TED)","","","","","","","","","Sammelstelle","","Morgentalstrasse vis à vis 73","","4406","","","","","","","","","","","","","","","Zürich","8038","sa61198","","1","","Sammelstelle, Sammelstellen, Glassammelstelle, Glassammelstellen, Altglas, Altöl, Recycling, Metall, Altmetall, Öl, Oel, Glas, Textilien, Wertstoff","044 417 77 77","","https://www.stadt-zuerich.ch/ted/de/index/entsorgung_recycling/entsorgen/wo-wann-entsorgen/wertstoff","","","","","","X","X","","X","61198","","POINT Z (2682044 1244188.4 0)"
"","Ernst-Zöbeli-Strasse 4","","","","","ERZ Entsorgung + Recycling Zürich","20.03.2023 00:00","","Tiefbau- und Entsorgungsdepartement (TED)","","","","","","","","","Sammelstelle","","Ernst-Zöbeli-Strasse vis-à-vis 4","","4407","","","","","","","","","","","","","","","Zürich","8048","sa42913","","1","","Sammelstelle, Sammelstellen, Glassammelstelle, Glassammelstellen, Altglas, Altöl, Recycling, Metall, Altmetall, Öl, Oel, Glas, Textilien, Wertstoff","044 417 77 77","","https://www.stadt-zuerich.ch/ted/de/index/entsorgung_recycling/entsorgen/wo-wann-entsorgen/wertstoff","","","","","","X","X","","X","42913","","POINT Z (2678155 1249568.9 0)"
"","Appenzellerstrasse 73","","","","","ERZ Entsorgung + Recycling Zürich","20.03.2023 00:00","","Tiefbau- und Entsorgungsdepartement (TED)","","","","","","","","","Sammelstelle","","Appenzellerstrasse vis-à-vis 73","","4408","","","","","","","","","","","","","","","Zürich","8049","sa42985","","1","","Sammelstelle, Sammelstellen, Glassammelstelle, Glassammelstellen, Altglas, Altöl, Recycling, Metall, Altmetall, Öl, Oel, Glas, Textilien, Wertstoff","044 417 77 77","","https://www.stadt-zuerich.ch/ted/de/index/entsorgung_recycling/entsorgen/wo-wann-entsorgen/wertstoff","","","","","","X","X","","X","42985","","POINT Z (2680686 1250592.9 0)"
"","Schaffhauserstrasse 502","","","","","ERZ Entsorgung + Recycling Zürich","20.03.2023 00:00","","Tiefbau- und Entsorgungsdepartement (TED)","","","","","","","","","Sammelstelle","","Schaffhauserstrasse vis-à-vis 502","","4409","","","","","","","","","","","","","","","Zürich","8052","sa43027","","1","","Sammelstelle, Sammelstellen, Glassammelstelle, Glassammelstellen, Altglas, Altöl, Recycling, Metall, Altmetall, Öl, Oel, Glas, Textilien, Wertstoff","044 417 77 77","","https://www.stadt-zuerich.ch/ted/de/index/entsorgung_recycling/entsorgen/wo-wann-entsorgen/wertstoff","","","","","","X","X","X","X","43027","","POINT Z (2683786.8 1253008.5 0)"
"","Köschenrütistrasse 72","","","","","ERZ Entsorgung + Recycling Zürich","20.03.2023 00:00","","Tiefbau- und Entsorgungsdepartement (TED)","","","","","","","","","Sammelstelle","","Köschenrütistrasse 72","","4410","","","","","","","","","","","","","","","Zürich","8052","sa43029","","1","","Sammelstelle, Sammelstellen, Glassammelstelle, Glassammelstellen, Altglas, Altöl, Recycling, Metall, Altmetall, Öl, Oel, Glas, Textilien, Wertstoff","044 417 77 77","","https://www.stadt-zuerich.ch/ted/de/index/entsorgung_recycling/entsorgen/wo-wann-entsorgen/wertstoff","","","","","","X","X","","","43029","X","POINT Z (2682848 1253351.9 0)"
"","Hertensteinstrasse 41","","","","","ERZ Entsorgung + Recycling Zürich","20.03.2023 00:00","","Tiefbau- und Entsorgungsdepartement (TED)","","","","","","","","","Sammelstelle","","Hertensteinstrasse 41","","4411","","","","","","","","","","","","","","","Zürich","8052","sa43030","","1","","Sammelstelle, Sammelstellen, Glassammelstelle, Glassammelstellen, Altglas, Altöl, Recycling, Metall, Altmetall, Öl, Oel, Glas, Textilien, Wertstoff","044 417 77 77","","https://www.stadt-zuerich.ch/ted/de/index/entsorgung_recycling/entsorgen/wo-wann-entsorgen/wertstoff","","","","","","X","X","","","43030","X","POINT Z (2683351 1253271.9 0)"
"","Birchstrasse 408","","","","","ERZ Entsorgung + Recycling Zürich","20.03.2023 00:00","","Tiefbau- und Entsorgungsdepartement (TED)","","","","","","","","","Sammelstelle","","Birchstrasse vis-à-vis 408","","4412","","","","","","","","","","","","","","","Zürich","8052","sa43031","","1","","Sammelstelle, Sammelstellen, Glassammelstelle, Glassammelstellen, Altglas, Altöl, Recycling, Metall, Altmetall, Öl, Oel, Glas, Textilien, Wertstoff","044 417 77 77","","https://www.stadt-zuerich.ch/ted/de/index/entsorgung_recycling/entsorgen/wo-wann-entsorgen/wertstoff","","","","","","X","X","","X","43031","X","POINT Z (2683041.2 1253059.2 0)"
"","Bahnhaldenstrasse 17","","","","","ERZ Entsorgung + Recycling Zürich","20.03.2023 00:00","","Tiefbau- und Entsorgungsdepartement (TED)","","","","","","","","","Sammelstelle","","Bahnhaldensttrasse  17","","4413","","","","","","","","","","","","","","","Zürich","8052","sa43028","","1","","Sammelstelle, Sammelstellen, Glassammelstelle, Glassammelstellen, Altglas, Altöl, Recycling, Metall, Altmetall, Öl, Oel, Glas, Textilien, Wertstoff","044 417 77 77","","https://www.stadt-zuerich.ch/ted/de/index/entsorgung_recycling/entsorgen/wo-wann-entsorgen/wertstoff","","","","","","X","X","X","X","43028","X","POINT Z (2683360.5 1252586.4 0)"
"","Riesbachstrasse 61","","","","","ERZ Entsorgung + Recycling Zürich","20.03.2023 00:00","","Tiefbau- und Entsorgungsdepartement (TED)","","","","","","","","","Sammelstelle","","Riesbachstrasse 61","","4414","","","","","","","","","","","","","","","Zürich","8008","sa42895","","1","","Sammelstelle, Sammelstellen, Glassammelstelle, Glassammelstellen, Altglas, Altöl, Recycling, Metall, Altmetall, Öl, Oel, Glas, Textilien, Wertstoff","044 417 77 77","","https://www.stadt-zuerich.ch/ted/de/index/entsorgung_recycling/entsorgen/wo-wann-entsorgen/wertstoff","","","","","","X","X","","X","42895","","POINT Z (2684366.5 1245863.9 0)"
"","Spyristrasse 20","","","","","ERZ Entsorgung + Recycling Zürich","20.03.2023 00:00","","Tiefbau- und Entsorgungsdepartement (TED)","","","","","","","","","Sammelstelle","","Spyristrasse 20","","4415","","","","","","","","","","","","","","","Zürich","8044","sa42935","","1","","Sammelstelle, Sammelstellen, Glassammelstelle, Glassammelstellen, Altglas, Altöl, Recycling, Metall, Altmetall, Öl, Oel, Glas, Textilien, Wertstoff","044 417 77 77","","https://www.stadt-zuerich.ch/ted/de/index/entsorgung_recycling/entsorgen/wo-wann-entsorgen/wertstoff","","","","","","X","X","","X","42935","","POINT Z (2684087 1248558.9 0)"
"","Seefeldstrasse 233","","","","","ERZ Entsorgung + Recycling Zürich","20.03.2023 00:00","","Tiefbau- und Entsorgungsdepartement (TED)","","","","","","","","","Sammelstelle","","Seefeldstrasse 233","","4447","","","","","","","","","","","","","","","Zürich","8008","sa42893","","1","","Sammelstelle, Sammelstellen, Glassammelstelle, Glassammelstellen, Altglas, Altöl, Recycling, Metall, Altmetall, Öl, Oel, Glas, Textilien, Wertstoff","044 417 77 77","","https://www.stadt-zuerich.ch/ted/de/index/entsorgung_recycling/entsorgen/wo-wann-entsorgen/wertstoff","","","","","","X","X","","X","42893","","POINT Z (2684814.5 1245070.9 0)"
"","Mittelstrasse 6","","","","","ERZ Entsorgung + Recycling Zürich","20.03.2023 00:00","","Tiefbau- und Entsorgungsdepartement (TED)","","","","","","","","","Sammelstelle","","Mittelstrasse 6","","4448","","","","","","","","","","","","","","","Zürich","8008","sa42892","","1","","Sammelstelle, Sammelstellen, Glassammelstelle, Glassammelstellen, Altglas, Altöl, Recycling, Metall, Altmetall, Öl, Oel, Glas, Textilien, Wertstoff","044 417 77 77","","https://www.stadt-zuerich.ch/ted/de/index/entsorgung_recycling/entsorgen/wo-wann-entsorgen/wertstoff","","","","","","X","X","","X","42892","","POINT Z (2684049 1245949.9 0)"
"","Bellerivestrasse 158","","","","","ERZ Entsorgung + Recycling Zürich","20.03.2023 00:00","","Tiefbau- und Entsorgungsdepartement (TED)","","","","","","","","","Sammelstelle","","Bellerivestrasse 158","","4449","","","","","","","","","","","","","","","Zürich","8008","sa46863","","1","","Sammelstelle, Sammelstellen, Glassammelstelle, Glassammelstellen, Altglas, Altöl, Recycling, Metall, Altmetall, Öl, Oel, Glas, Textilien, Wertstoff","044 417 77 77","","https://www.stadt-zuerich.ch/ted/de/index/entsorgung_recycling/entsorgen/wo-wann-entsorgen/wertstoff","","","","","","","X","","","46863","","POINT Z (2684067.5 1245344.5 0)"
"","Seefeldquai 8","","","","","ERZ Entsorgung + Recycling Zürich","20.03.2023 00:00","","Tiefbau- und Entsorgungsdepartement (TED)","","","","","","","","","Sammelstelle","","Seefeldquai 8","","4450","","","","","","","","","","","","","","","Zürich","8008","sa46862","","1","","Sammelstelle, Sammelstellen, Glassammelstelle, Glassammelstellen, Altglas, Altöl, Recycling, Metall, Altmetall, Öl, Oel, Glas, Textilien, Wertstoff","044 417 77 77","","https://www.stadt-zuerich.ch/ted/de/index/entsorgung_recycling/entsorgen/wo-wann-entsorgen/wertstoff","","","","","","","X","","","46862","","POINT Z (2683769.5 1246142.9 0)"
"","Utoquai 46","","","","","ERZ Entsorgung + Recycling Zürich","20.03.2023 00:00","","Tiefbau- und Entsorgungsdepartement (TED)","","","","","","","","","Sammelstelle","","Utoquai 46","","4451","","","","","","","","","","","","","","","Zürich","8008","sa46866","","1","","Sammelstelle, Sammelstellen, Glassammelstelle, Glassammelstellen, Altglas, Altöl, Recycling, Metall, Altmetall, Öl, Oel, Glas, Textilien, Wertstoff","044 417 77 77","","https://www.stadt-zuerich.ch/ted/de/index/entsorgung_recycling/entsorgen/wo-wann-entsorgen/wertstoff","","","","","","","X","","","46866","","POINT Z (2683730.8 1246335 0)"
"","Bleulerstrasse 70","","","","","ERZ Entsorgung + Recycling Zürich","20.03.2023 00:00","","Tiefbau- und Entsorgungsdepartement (TED)","","","","","","","","","Sammelstelle","","Bleulerstrasse 70","","4452","","","","","","","","","","","","","","","Zürich","8008","sa42898","","1","","Sammelstelle, Sammelstellen, Glassammelstelle, Glassammelstellen, Altglas, Altöl, Recycling, Metall, Altmetall, Öl, Oel, Glas, Textilien, Wertstoff","044 417 77 77","","https://www.stadt-zuerich.ch/ted/de/index/entsorgung_recycling/entsorgen/wo-wann-entsorgen/wertstoff","","","","","","X","X","","X","42898","","POINT Z (2685557 1244779.8 0)"
"","Zürichbergstrasse 196","","","","","ERZ Entsorgung + Recycling Zürich","20.03.2023 00:00","","Tiefbau- und Entsorgungsdepartement (TED)","","","","","","","","","Sammelstelle","","Zürichbergstrasse 196","","4453","","","","","","","","","","","","","","","Zürich","8044","sa42938","","1","","Sammelstelle, Sammelstellen, Glassammelstelle, Glassammelstellen, Altglas, Altöl, Recycling, Metall, Altmetall, Öl, Oel, Glas, Textilien, Wertstoff","044 417 77 77","","https://www.stadt-zuerich.ch/ted/de/index/entsorgung_recycling/entsorgen/wo-wann-entsorgen/wertstoff","","","","","","X","X","","X","42938","","POINT Z (2685789 1248672.8 0)"
"","Röntgenstrasse 39","","","","","ERZ Entsorgung + Recycling Zürich","20.03.2023 00:00","","Tiefbau- und Entsorgungsdepartement (TED)","","","","","","","","","Sammelstelle","","Röntgenstrasse 39","","4712","","","","","","","","","","","","","","","Zürich","8005","sa42889","","1","","Sammelstelle, Sammelstellen, Glassammelstelle, Glassammelstellen, Altglas, Altöl, Recycling, Metall, Altmetall, Öl, Oel, Glas, Textilien, Wertstoff","044 417 77 77","","https://www.stadt-zuerich.ch/ted/de/index/entsorgung_recycling/entsorgen/wo-wann-entsorgen/wertstoff","","","","","","X","X","","X","42889","","POINT Z (2682192 1248678.9 0)"
"","Ueberlandstrasse 14","","","","","ERZ Entsorgung + Recycling Zürich","20.03.2023 00:00","","Tiefbau- und Entsorgungsdepartement (TED)","","","","","","","","","Sammelstelle","","Ueberlandstrasse 14","","4713","","","","","","","","","","","","","","","Zürich","8051","sa67515","","1","","Sammelstelle, Sammelstellen, Glassammelstelle, Glassammelstellen, Altglas, Altöl, Recycling, Metall, Altmetall, Öl, Oel, Glas, Textilien, Wertstoff","044 417 77 77","","https://www.stadt-zuerich.ch/ted/de/index/entsorgung_recycling/entsorgen/wo-wann-entsorgen/wertstoff","","","","","","X","X","","X","67515","","POINT Z (2684426.5 1250970 0)"
"","Josefstrasse 92","","","","","ERZ Entsorgung + Recycling Zürich","20.03.2023 00:00","","Tiefbau- und Entsorgungsdepartement (TED)","","","","","","","","","Sammelstelle","","Josefstrasse 92","","4714","","","","","","","","","","","","","","","Zürich","8005","sa42890","","1","","Sammelstelle, Sammelstellen, Glassammelstelle, Glassammelstellen, Altglas, Altöl, Recycling, Metall, Altmetall, Öl, Oel, Glas, Textilien, Wertstoff","044 417 77 77","","https://www.stadt-zuerich.ch/ted/de/index/entsorgung_recycling/entsorgen/wo-wann-entsorgen/wertstoff","","","","","","X","X","","","42890","X","POINT Z (2682461 1248613.9 0)"
"","Im Altried 3","","","","","ERZ Entsorgung + Recycling Zürich","20.03.2023 00:00","","Tiefbau- und Entsorgungsdepartement (TED)","","","","","","","","","Sammelstelle","","Im Altried vis-à-vis 3","","4715","","","","","","","","","","","","","","","Zürich","8051","sa43046","","1","","Sammelstelle, Sammelstellen, Glassammelstelle, Glassammelstellen, Altglas, Altöl, Recycling, Metall, Altmetall, Öl, Oel, Glas, Textilien, Wertstoff","044 417 77 77","","https://www.stadt-zuerich.ch/ted/de/index/entsorgung_recycling/entsorgen/wo-wann-entsorgen/wertstoff","","","","","","X","X","","X","43046","","POINT Z (2687010 1251112.9 0)"
"","Konradstrasse 79","","","","","ERZ Entsorgung + Recycling Zürich","20.03.2023 00:00","","Tiefbau- und Entsorgungsdepartement (TED)","","","","","","","","","Sammelstelle","","Konradstrasse 79","","4716","","","","","","","","","","","","","","","Zürich","8005","sa42891","","1","","Sammelstelle, Sammelstellen, Glassammelstelle, Glassammelstellen, Altglas, Altöl, Recycling, Metall, Altmetall, Öl, Oel, Glas, Textilien, Wertstoff","044 417 77 77","","https://www.stadt-zuerich.ch/ted/de/index/entsorgung_recycling/entsorgen/wo-wann-entsorgen/wertstoff","","","","","","X","X","","X","42891","X","POINT Z (2682624 1248532.9 0)"
"","Hirzenbachstrasse 40","","","","","ERZ Entsorgung + Recycling Zürich","20.03.2023 00:00","","Tiefbau- und Entsorgungsdepartement (TED)","","","","","","","","","Sammelstelle","","Hirzenbachstrasse 40","","4717","","","","","","","","","","","","","","","Zürich","8051","sa65070","","1","","Sammelstelle, Sammelstellen, Glassammelstelle, Glassammelstellen, Altglas, Altöl, Recycling, Metall, Altmetall, Öl, Oel, Glas, Textilien, Wertstoff","044 417 77 77","","https://www.stadt-zuerich.ch/ted/de/index/entsorgung_recycling/entsorgen/wo-wann-entsorgen/wertstoff","","","","","","X","X","","X","65070","X","POINT Z (2686831.8 1250971.6 0)"
"","Luchswiesenstrasse 25","","","","","ERZ Entsorgung + Recycling Zürich","20.03.2023 00:00","","Tiefbau- und Entsorgungsdepartement (TED)","","","","","","","","","Sammelstelle","","Luchswiesenstrasse 25","","4718","","","","","","","","","","","","","","","Zürich","8051","sa43041","","1","","Sammelstelle, Sammelstellen, Glassammelstelle, Glassammelstellen, Altglas, Altöl, Recycling, Metall, Altmetall, Öl, Oel, Glas, Textilien, Wertstoff","044 417 77 77","","https://www.stadt-zuerich.ch/ted/de/index/entsorgung_recycling/entsorgen/wo-wann-entsorgen/wertstoff","","","","","","X","X","X","X","43041","","POINT Z (2686572.5 1250772.9 0)"
"","Helen-Keller-Strasse 4a","","","","","ERZ Entsorgung + Recycling Zürich","20.03.2023 00:00","","Tiefbau- und Entsorgungsdepartement (TED)","","","","","","","","","Sammelstelle","","Helen-Keller-Strasse 4a","","4719","","","","","","","","","","","","","","","Zürich","8051","sa67429","","1","","Sammelstelle, Sammelstellen, Glassammelstelle, Glassammelstellen, Altglas, Altöl, Recycling, Metall, Altmetall, Öl, Oel, Glas, Textilien, Wertstoff","044 417 77 77","","https://www.stadt-zuerich.ch/ted/de/index/entsorgung_recycling/entsorgen/wo-wann-entsorgen/wertstoff","","","","","","X","X","","X","67429","","POINT Z (2687069.5 1250502.4 0)"
"","Ueberlandstrasse 409","","","","","ERZ Entsorgung + Recycling Zürich","20.03.2023 00:00","","Tiefbau- und Entsorgungsdepartement (TED)","","","","","","","","","Sammelstelle","","Ueberlandstrasse 409","","4720","","","","","","","","","","","","","","","Zürich","8051","sa66749","","1","","Sammelstelle, Sammelstellen, Glassammelstelle, Glassammelstellen, Altglas, Altöl, Recycling, Metall, Altmetall, Öl, Oel, Glas, Textilien, Wertstoff","044 417 77 77","","https://www.stadt-zuerich.ch/ted/de/index/entsorgung_recycling/entsorgen/wo-wann-entsorgen/wertstoff","","","","","","X","X","","","66749","","POINT Z (2686683 1251352.4 0)"
"","Ueberlandstrasse 381","","","","","ERZ Entsorgung + Recycling Zürich","20.03.2023 00:00","","Tiefbau- und Entsorgungsdepartement (TED)","","","","","","","","","Sammelstelle","","Ueberlandstrasse 381","","4721","","","","","","","","","","","","","","","Zürich","8051","sa43038","","1","","Sammelstelle, Sammelstellen, Glassammelstelle, Glassammelstellen, Altglas, Altöl, Recycling, Metall, Altmetall, Öl, Oel, Glas, Textilien, Wertstoff","044 417 77 77","","https://www.stadt-zuerich.ch/ted/de/index/entsorgung_recycling/entsorgen/wo-wann-entsorgen/wertstoff","","","","","","X","X","","X","43038","","POINT Z (2686475 1251394.9 0)"
"","Geeringstrasse 95","","","","","ERZ Entsorgung + Recycling Zürich","20.03.2023 00:00","","Tiefbau- und Entsorgungsdepartement (TED)","","","","","","","","","Sammelstelle","","Geeringstrasse 95","","4722","","","","","","","","","","","","","","","Zürich","8049","sa42977","","1","","Sammelstelle, Sammelstellen, Glassammelstelle, Glassammelstellen, Altglas, Altöl, Recycling, Metall, Altmetall, Öl, Oel, Glas, Textilien, Wertstoff","044 417 77 77","","https://www.stadt-zuerich.ch/ted/de/index/entsorgung_recycling/entsorgen/wo-wann-entsorgen/wertstoff","","","","","","X","X","","X","42977","","POINT Z (2678258 1252070.9 0)"
"","Riedhofstrasse 378","","","","","ERZ Entsorgung + Recycling Zürich","20.03.2023 00:00","","Tiefbau- und Entsorgungsdepartement (TED)","","","","","","","","","Sammelstelle","","Riedhofstrasse vis-à-vis 378","","4723","","","","","","","","","","","","","","","Zürich","8049","sa42987","","1","","Sammelstelle, Sammelstellen, Glassammelstelle, Glassammelstellen, Altglas, Altöl, Recycling, Metall, Altmetall, Öl, Oel, Glas, Textilien, Wertstoff","044 417 77 77","","https://www.stadt-zuerich.ch/ted/de/index/entsorgung_recycling/entsorgen/wo-wann-entsorgen/wertstoff","","","","","","X","X","","","42987","X","POINT Z (2678665 1251470.9 0)"
"","Gutstrasse 149","","","","","ERZ Entsorgung + Recycling Zürich","20.03.2023 00:00","","Tiefbau- und Entsorgungsdepartement (TED)","","","","","","","","","Sammelstelle","","Gutstrasse 149","","4724","","","","","","","","","","","","","","","Zürich","8055","sa42900","","1","","Sammelstelle, Sammelstellen, Glassammelstelle, Glassammelstellen, Altglas, Altöl, Recycling, Metall, Altmetall, Öl, Oel, Glas, Textilien, Wertstoff","044 417 77 77","","https://www.stadt-zuerich.ch/ted/de/index/entsorgung_recycling/entsorgen/wo-wann-entsorgen/wertstoff","","","","","","X","X","X","X","42900","","POINT Z (2680411 1247497.9 0)"
"","Birmensdorferstrasse 432","","","","","ERZ Entsorgung + Recycling Zürich","20.03.2023 00:00","","Tiefbau- und Entsorgungsdepartement (TED)","","","","","","","","","Sammelstelle","","Birmensdorferstrasse 432","","4725","","","","","","","","","","","","","","","Zürich","8055","sa42833","","1","","Sammelstelle, Sammelstellen, Glassammelstelle, Glassammelstellen, Altglas, Altöl, Recycling, Metall, Altmetall, Öl, Oel, Glas, Textilien, Wertstoff","044 417 77 77","","https://www.stadt-zuerich.ch/ted/de/index/entsorgung_recycling/entsorgen/wo-wann-entsorgen/wertstoff","","","","","","X","X","","X","42833","X","POINT Z (2680248.8 1247007.2 0)"
"","Friesenbergstrasse 193","","","","","ERZ Entsorgung + Recycling Zürich","20.03.2023 00:00","","Tiefbau- und Entsorgungsdepartement (TED)","","","","","","","","","Sammelstelle","","Friesenbergstrasse 193","","4819","","","","","","","","","","","","","","","Zürich","8055","sa42827","","1","","Sammelstelle, Sammelstellen, Glassammelstelle, Glassammelstellen, Altglas, Altöl, Recycling, Metall, Altmetall, Öl, Oel, Glas, Textilien, Wertstoff","044 417 77 77","","https://www.stadt-zuerich.ch/ted/de/index/entsorgung_recycling/entsorgen/wo-wann-entsorgen/wertstoff","","","","","","X","X","","X","42827","X","POINT Z (2680638.8 1246341 0)"
"","Talwiesenstrasse 118","","","","","ERZ Entsorgung + Recycling Zürich","20.03.2023 00:00","","Tiefbau- und Entsorgungsdepartement (TED)","","","","","","","","","Sammelstelle","","Talwiesenstrasse vis-à-vis 118","","4820","","","","","","","","","","","","","","","Zürich","8055","sa42819","","1","","Sammelstelle, Sammelstellen, Glassammelstelle, Glassammelstellen, Altglas, Altöl, Recycling, Metall, Altmetall, Öl, Oel, Glas, Textilien, Wertstoff","044 417 77 77","","https://www.stadt-zuerich.ch/ted/de/index/entsorgung_recycling/entsorgen/wo-wann-entsorgen/wertstoff","","","","","","X","X","X","X","42819","","POINT Z (2681143 1246820.9 0)"
"","Berneggweg 8","","","","","ERZ Entsorgung + Recycling Zürich","20.03.2023 00:00","","Tiefbau- und Entsorgungsdepartement (TED)","","","","","","","","","Sammelstelle","","Berneggweg vis-à-vis 8","","4821","","","","","","","","","","","","","","","Zürich","8055","sa42821","","1","","Sammelstelle, Sammelstellen, Glassammelstelle, Glassammelstellen, Altglas, Altöl, Recycling, Metall, Altmetall, Öl, Oel, Glas, Textilien, Wertstoff","044 417 77 77","","https://www.stadt-zuerich.ch/ted/de/index/entsorgung_recycling/entsorgen/wo-wann-entsorgen/wertstoff","","","","","","X","X","","X","42821","X","POINT Z (2681517 1246761.9 0)"
"","Talwiesenstrasse 169","","","","","ERZ Entsorgung + Recycling Zürich","20.03.2023 00:00","","Tiefbau- und Entsorgungsdepartement (TED)","","","","","","","","","Sammelstelle","","Talwiesenstrasse 169","","4822","","","","","","","","","","","","","","","Zürich","8055","sa42818","","1","","Sammelstelle, Sammelstellen, Glassammelstelle, Glassammelstellen, Altglas, Altöl, Recycling, Metall, Altmetall, Öl, Oel, Glas, Textilien, Wertstoff","044 417 77 77","","https://www.stadt-zuerich.ch/ted/de/index/entsorgung_recycling/entsorgen/wo-wann-entsorgen/wertstoff","","","","","","X","X","","X","42818","X","POINT Z (2680942.2 1247087.9 0)"
"","Dolderstrasse 39","","","","","ERZ Entsorgung + Recycling Zürich","20.03.2023 00:00","","Tiefbau- und Entsorgungsdepartement (TED)","","","","","","","","","Sammelstelle","","Dolderstrasse vis à vis 39","","4823","","","","","","","","","","","","","","","Zürich","8032","sa42964","","1","","Sammelstelle, Sammelstellen, Glassammelstelle, Glassammelstellen, Altglas, Altöl, Recycling, Metall, Altmetall, Öl, Oel, Glas, Textilien, Wertstoff","044 417 77 77","","https://www.stadt-zuerich.ch/ted/de/index/entsorgung_recycling/entsorgen/wo-wann-entsorgen/wertstoff","","","","","","X","X","","X","42964","X","POINT Z (2684736 1247316.9 0)"
"","Molkenstrasse 5","","","","","ERZ Entsorgung + Recycling Zürich","20.03.2023 00:00","","Tiefbau- und Entsorgungsdepartement (TED)","","","","","","","","","Sammelstelle","","Molkenstrasse vis à vis 5","","4824","","","","","","","","","","","","","","","Zürich","8004","sa66265","","1","","Sammelstelle, Sammelstellen, Glassammelstelle, Glassammelstellen, Altglas, Altöl, Recycling, Metall, Altmetall, Öl, Oel, Glas, Textilien, Wertstoff","044 417 77 77","","https://www.stadt-zuerich.ch/ted/de/index/entsorgung_recycling/entsorgen/wo-wann-entsorgen/wertstoff","","","","","","X","X","","X","66265","X","POINT Z (2682250.5 1247847 0)"
"","Waserstrasse 36","","","","","ERZ Entsorgung + Recycling Zürich","20.03.2023 00:00","","Tiefbau- und Entsorgungsdepartement (TED)","","","","","","","","","Sammelstelle","","Waserstrasse vis-à-vis 36","","4825","","","","","","","","","","","","","","","Zürich","8053","sa42969","","1","","Sammelstelle, Sammelstellen, Glassammelstelle, Glassammelstellen, Altglas, Altöl, Recycling, Metall, Altmetall, Öl, Oel, Glas, Textilien, Wertstoff","044 417 77 77","","https://www.stadt-zuerich.ch/ted/de/index/entsorgung_recycling/entsorgen/wo-wann-entsorgen/wertstoff","","","","","","X","X","","X","42969","","POINT Z (2686039 1245886.8 0)"
"","Trichtenhausenstrasse 93","","","","","ERZ Entsorgung + Recycling Zürich","20.03.2023 00:00","","Tiefbau- und Entsorgungsdepartement (TED)","","","","","","","","","Sammelstelle","","Trichtenhausenstasse 93","","4826","","","","","","","","","","","","","","","Zürich","8053","sa42967","","1","","Sammelstelle, Sammelstellen, Glassammelstelle, Glassammelstellen, Altglas, Altöl, Recycling, Metall, Altmetall, Öl, Oel, Glas, Textilien, Wertstoff","044 417 77 77","","https://www.stadt-zuerich.ch/ted/de/index/entsorgung_recycling/entsorgen/wo-wann-entsorgen/wertstoff","","","","","","X","X","","X","42967","","POINT Z (2687800 1245603.8 0)"
"","St. Jakobstrasse 29","","","","","ERZ Entsorgung + Recycling Zürich","20.03.2023 00:00","","Tiefbau- und Entsorgungsdepartement (TED)","","","","","","","","","Sammelstelle","","St. Jakobstr. vis-à-vis 29","","4827","","","","","","","","","","","","","","","Zürich","8004","sa45704","","1","","Sammelstelle, Sammelstellen, Glassammelstelle, Glassammelstellen, Altglas, Altöl, Recycling, Metall, Altmetall, Öl, Oel, Glas, Textilien, Wertstoff","044 417 77 77","","https://www.stadt-zuerich.ch/ted/de/index/entsorgung_recycling/entsorgen/wo-wann-entsorgen/wertstoff","","","","","","X","X","X","X","45704","X","POINT Z (2682326.5 1247626.6 0)"
"","Kochstrasse 21","","","","","ERZ Entsorgung + Recycling Zürich","20.03.2023 00:00","","Tiefbau- und Entsorgungsdepartement (TED)","","","","","","","","","Sammelstelle","","Kochstrasse 21","","4828","","","","","","","","","","","","","","","Zürich","8004","sa42885","","1","","Sammelstelle, Sammelstellen, Glassammelstelle, Glassammelstellen, Altglas, Altöl, Recycling, Metall, Altmetall, Öl, Oel, Glas, Textilien, Wertstoff","044 417 77 77","","https://www.stadt-zuerich.ch/ted/de/index/entsorgung_recycling/entsorgen/wo-wann-entsorgen/wertstoff","","","","","","X","X","","X","42885","","POINT Z (2681263 1248051.9 0)"
"","Maneggpromenade 88","","","","","ERZ Entsorgung + Recycling Zürich","20.03.2023 00:00","","Tiefbau- und Entsorgungsdepartement (TED)","","","","","","","","","Sammelstelle","","Maneggpromenade vis-à-vis 88","","4829","","","","","","","","","","","","","","","Zürich","8041","sa42811","","1","","Sammelstelle, Sammelstellen, Glassammelstelle, Glassammelstellen, Altglas, Altöl, Recycling, Metall, Altmetall, Öl, Oel, Glas, Textilien, Wertstoff","044 417 77 77","","https://www.stadt-zuerich.ch/ted/de/index/entsorgung_recycling/entsorgen/wo-wann-entsorgen/wertstoff","","","","","","X","X","","X","42811","","POINT Z (2681311 1243004.9 0)"
"","Leimbachstrasse 160","","","","","ERZ Entsorgung + Recycling Zürich","20.03.2023 00:00","","Tiefbau- und Entsorgungsdepartement (TED)","","","","","","","","","Sammelstelle","","Leimbachstrasse 160","","4830","","","","","","","","","","","","","","","Zürich","8041","sa42810","","1","","Sammelstelle, Sammelstellen, Glassammelstelle, Glassammelstellen, Altglas, Altöl, Recycling, Metall, Altmetall, Öl, Oel, Glas, Textilien, Wertstoff","044 417 77 77","","https://www.stadt-zuerich.ch/ted/de/index/entsorgung_recycling/entsorgen/wo-wann-entsorgen/wertstoff","","","","","","X","X","X","X","42810","","POINT Z (2681223.8 1242330.9 0)"
"","Katzenschwanzstrasse 28","","","","","ERZ Entsorgung + Recycling Zürich","20.03.2023 00:00","","Tiefbau- und Entsorgungsdepartement (TED)","","","","","","","","","Sammelstelle","","Katzenschwanzstr. vis-à-vis 28","","4831","","","","","","","","","","","","","","","Zürich","8053","sa42966","","1","","Sammelstelle, Sammelstellen, Glassammelstelle, Glassammelstellen, Altglas, Altöl, Recycling, Metall, Altmetall, Öl, Oel, Glas, Textilien, Wertstoff","044 417 77 77","","https://www.stadt-zuerich.ch/ted/de/index/entsorgung_recycling/entsorgen/wo-wann-entsorgen/wertstoff","","","","","","X","X","X","X","42966","","POINT Z (2687539 1246345.8 0)"
"","Hohlstrasse 90","","","","","ERZ Entsorgung + Recycling Zürich","20.03.2023 00:00","","Tiefbau- und Entsorgungsdepartement (TED)","","","","","","","","","Sammelstelle","","Hohlstrasse vis-à-vis 90","","4832","","","","","","","","","","","","","","","Zürich","8004","sa42858","","1","","Sammelstelle, Sammelstellen, Glassammelstelle, Glassammelstellen, Altglas, Altöl, Recycling, Metall, Altmetall, Öl, Oel, Glas, Textilien, Wertstoff","044 417 77 77","","https://www.stadt-zuerich.ch/ted/de/index/entsorgung_recycling/entsorgen/wo-wann-entsorgen/wertstoff","","","","","","X","X","","X","42858","","POINT Z (2681921 1248085.9 0)"
"","Witikonerstrasse 390","","","","","ERZ Entsorgung + Recycling Zürich","20.03.2023 00:00","","Tiefbau- und Entsorgungsdepartement (TED)","","","","","","","","","Sammelstelle","","Witikonerstrasse 390","","4912","","","","","","","","","","","","","","","Zürich","8053","sa42965","","1","","Sammelstelle, Sammelstellen, Glassammelstelle, Glassammelstellen, Altglas, Altöl, Recycling, Metall, Altmetall, Öl, Oel, Glas, Textilien, Wertstoff","044 417 77 77","","https://www.stadt-zuerich.ch/ted/de/index/entsorgung_recycling/entsorgen/wo-wann-entsorgen/wertstoff","","","","","","X","X","","X","42965","X","POINT Z (2687232 1246036.8 0)"
"","Seebahnstrasse 171","","","","","ERZ Entsorgung + Recycling Zürich","20.03.2023 00:00","","Tiefbau- und Entsorgungsdepartement (TED)","","","","","","","","","Sammelstelle","","Seebahnstrasse 171","","4913","","","","","","","","","","","","","","","Zürich","8004","sa45705","","1","","Sammelstelle, Sammelstellen, Glassammelstelle, Glassammelstellen, Altglas, Altöl, Recycling, Metall, Altmetall, Öl, Oel, Glas, Textilien, Wertstoff","044 417 77 77","","https://www.stadt-zuerich.ch/ted/de/index/entsorgung_recycling/entsorgen/wo-wann-entsorgen/wertstoff","","","","","","X","X","","X","45705","X","POINT Z (2681543.5 1247751.6 0)"
"","Tuchmacherstrasse 18","","","","","ERZ Entsorgung + Recycling Zürich","20.03.2023 00:00","","Tiefbau- und Entsorgungsdepartement (TED)","","","","","","","","","Sammelstelle","","Tuchmacherstrasse 18","","4914","","","","","","","","","","","","","","","Zürich","8041","sa65124","","1","","Sammelstelle, Sammelstellen, Glassammelstelle, Glassammelstellen, Altglas, Altöl, Recycling, Metall, Altmetall, Öl, Oel, Glas, Textilien, Wertstoff","044 417 77 77","","https://www.stadt-zuerich.ch/ted/de/index/entsorgung_recycling/entsorgen/wo-wann-entsorgen/wertstoff","","","","","","X","X","","X","65124","X","POINT Z (2681786 1243931 0)"
"","Kanzleistrasse 137","","","","","ERZ Entsorgung + Recycling Zürich","20.03.2023 00:00","","Tiefbau- und Entsorgungsdepartement (TED)","","","","","","","","","Sammelstelle","","Kanzleistrasse 137","","4915","","","","","","","","","","","","","","","Zürich","8004","sa42836","","1","","Sammelstelle, Sammelstellen, Glassammelstelle, Glassammelstellen, Altglas, Altöl, Recycling, Metall, Altmetall, Öl, Oel, Glas, Textilien, Wertstoff","044 417 77 77","","https://www.stadt-zuerich.ch/ted/de/index/entsorgung_recycling/entsorgen/wo-wann-entsorgen/wertstoff","","","","","","X","X","","X","42836","","POINT Z (2681594 1247964.9 0)"
"","Drusbergstrasse 135","","","","","ERZ Entsorgung + Recycling Zürich","20.03.2023 00:00","","Tiefbau- und Entsorgungsdepartement (TED)","","","","","","","","","Sammelstelle","","Drusbergstrasse 135","","4916","","","","","","","","","","","","","","","Zürich","8053","sa42968","","1","","Sammelstelle, Sammelstellen, Glassammelstelle, Glassammelstellen, Altglas, Altöl, Recycling, Metall, Altmetall, Öl, Oel, Glas, Textilien, Wertstoff","044 417 77 77","","https://www.stadt-zuerich.ch/ted/de/index/entsorgung_recycling/entsorgen/wo-wann-entsorgen/wertstoff","","","","","","X","X","X","X","42968","X","POINT Z (2686513 1245888.8 0)"
"","Weberstrasse 3","","","","","ERZ Entsorgung + Recycling Zürich","20.03.2023 00:00","","Tiefbau- und Entsorgungsdepartement (TED)","","","","","","","","","Sammelstelle","","Weberstrasse 3","","4917","","","","","","","","","","","","","","","Zürich","8004","sa42860","","1","","Sammelstelle, Sammelstellen, Glassammelstelle, Glassammelstellen, Altglas, Altöl, Recycling, Metall, Altmetall, Öl, Oel, Glas, Textilien, Wertstoff","044 417 77 77","","https://www.stadt-zuerich.ch/ted/de/index/entsorgung_recycling/entsorgen/wo-wann-entsorgen/wertstoff","","","","","","X","X","","X","42860","X","POINT Z (2682341 1247161.9 0)"
"","Hammerstrasse 43","","","","","ERZ Entsorgung + Recycling Zürich","20.03.2023 00:00","","Tiefbau- und Entsorgungsdepartement (TED)","","","","","","","","","Sammelstelle","","Hammerstrasse vis-à-vis 43","","4918","","","","","","","","","","","","","","","Zürich","8032","sa42971","","1","","Sammelstelle, Sammelstellen, Glassammelstelle, Glassammelstellen, Altglas, Altöl, Recycling, Metall, Altmetall, Öl, Oel, Glas, Textilien, Wertstoff","044 417 77 77","","https://www.stadt-zuerich.ch/ted/de/index/entsorgung_recycling/entsorgen/wo-wann-entsorgen/wertstoff","","","","","","X","X","","X","42971","X","POINT Z (2684826.5 1246123.1 0)"
"","Forchstrasse 261","","","","","ERZ Entsorgung + Recycling Zürich","20.03.2023 00:00","","Tiefbau- und Entsorgungsdepartement (TED)","","","","","","","","","Sammelstelle","","Forchstrasse 261","","4919","","","","","","","","","","","","","","","Zürich","8032","sa42970","","1","","Sammelstelle, Sammelstellen, Glassammelstelle, Glassammelstellen, Altglas, Altöl, Recycling, Metall, Altmetall, Öl, Oel, Glas, Textilien, Wertstoff","044 417 77 77","","https://www.stadt-zuerich.ch/ted/de/index/entsorgung_recycling/entsorgen/wo-wann-entsorgen/wertstoff","","","","","","X","X","","X","42970","X","POINT Z (2685595.8 1245890.5 0)"
"","Hardhof 9","","","","","ERZ Entsorgung + Recycling Zürich","20.03.2023 00:00","","Tiefbau- und Entsorgungsdepartement (TED)","","","","","","","","","Sammelstelle","","Hardhof 9 bei Wasserversorgung","","4920","","","","","","","","","","","","","","","Zürich","8064","sa42915","","1","","Sammelstelle, Sammelstellen, Glassammelstelle, Glassammelstellen, Altglas, Altöl, Recycling, Metall, Altmetall, Öl, Oel, Glas, Textilien, Wertstoff","044 417 77 77","","https://www.stadt-zuerich.ch/ted/de/index/entsorgung_recycling/entsorgen/wo-wann-entsorgen/wertstoff","","","","","","X","X","X","X","42915","","POINT Z (2679757 1250261.9 0)"
"","Grünauring 25","","","","","ERZ Entsorgung + Recycling Zürich","20.03.2023 00:00","","Tiefbau- und Entsorgungsdepartement (TED)","","","","","","","","","Sammelstelle","","Grünauring vis-à-vis 25","","4921","","","","","","","","","","","","","","","Zürich","8064","sa42917","","1","","Sammelstelle, Sammelstellen, Glassammelstelle, Glassammelstellen, Altglas, Altöl, Recycling, Metall, Altmetall, Öl, Oel, Glas, Textilien, Wertstoff","044 417 77 77","","https://www.stadt-zuerich.ch/ted/de/index/entsorgung_recycling/entsorgen/wo-wann-entsorgen/wertstoff","","","","","","X","X","","X","42917","","POINT Z (2679311 1249994.9 0)"
"","Sonneggstrasse 84","","","","","ERZ Entsorgung + Recycling Zürich","20.03.2023 00:00","","Tiefbau- und Entsorgungsdepartement (TED)","","","","","","","","","Sammelstelle","","Sonneggstrasse vis-à-vis 84","","4922","","","","","","","","","","","","","","","Zürich","8006","sa42922","","1","","Sammelstelle, Sammelstellen, Glassammelstelle, Glassammelstellen, Altglas, Altöl, Recycling, Metall, Altmetall, Öl, Oel, Glas, Textilien, Wertstoff","044 417 77 77","","https://www.stadt-zuerich.ch/ted/de/index/entsorgung_recycling/entsorgen/wo-wann-entsorgen/wertstoff","","","","","","X","X","","X","42922","","POINT Z (2683468 1248597.9 0)"
"","Kronenstrasse 19","","","","","ERZ Entsorgung + Recycling Zürich","20.03.2023 00:00","","Tiefbau- und Entsorgungsdepartement (TED)","","","","","","","","","Sammelstelle","","Kronenstrasse 19","","4923","","","","","","","","","","","","","","","Zürich","8006","sa62111","","1","","Sammelstelle, Sammelstellen, Glassammelstelle, Glassammelstellen, Altglas, Altöl, Recycling, Metall, Altmetall, Öl, Oel, Glas, Textilien, Wertstoff","044 417 77 77","","https://www.stadt-zuerich.ch/ted/de/index/entsorgung_recycling/entsorgen/wo-wann-entsorgen/wertstoff","","","","","","X","X","","X","62111","X","POINT Z (2682817.8 1249045.5 0)"
"","Grünauring 37","","","","","ERZ Entsorgung + Recycling Zürich","20.03.2023 00:00","","Tiefbau- und Entsorgungsdepartement (TED)","","","","","","","","","Sammelstelle","","Grünauring vis-à-vis 37","","4924","","","","","","","","","","","","","","","Zürich","8064","sa42916","","1","","Sammelstelle, Sammelstellen, Glassammelstelle, Glassammelstellen, Altglas, Altöl, Recycling, Metall, Altmetall, Öl, Oel, Glas, Textilien, Wertstoff","044 417 77 77","","https://www.stadt-zuerich.ch/ted/de/index/entsorgung_recycling/entsorgen/wo-wann-entsorgen/wertstoff","","","","","","X","X","","X","42916","","POINT Z (2679098.5 1250077.9 0)"
"","Bändlistrasse 94","","","","","ERZ Entsorgung + Recycling Zürich","20.03.2023 00:00","","Tiefbau- und Entsorgungsdepartement (TED)","","","","","","","","","Sammelstelle","","Bändlistrasse 94","","4925","","","","","","","","","","","","","","","Zürich","8064","sa66768","","1","","Sammelstelle, Sammelstellen, Glassammelstelle, Glassammelstellen, Altglas, Altöl, Recycling, Metall, Altmetall, Öl, Oel, Glas, Textilien, Wertstoff","044 417 77 77","","https://www.stadt-zuerich.ch/ted/de/index/entsorgung_recycling/entsorgen/wo-wann-entsorgen/wertstoff","","","","","","X","X","","X","66768","X","POINT Z (2678731 1250187.5 0)"
"","Scheuchzerstrasse 98","","","","","ERZ Entsorgung + Recycling Zürich","20.03.2023 00:00","","Tiefbau- und Entsorgungsdepartement (TED)","","","","","","","","","Sammelstelle","","Scheuchzerstrasse vis-à-vis 98","","5002","","","","","","","","","","","","","","","Zürich","8006","sa42923","","1","","Sammelstelle, Sammelstellen, Glassammelstelle, Glassammelstellen, Altglas, Altöl, Recycling, Metall, Altmetall, Öl, Oel, Glas, Textilien, Wertstoff","044 417 77 77","","https://www.stadt-zuerich.ch/ted/de/index/entsorgung_recycling/entsorgen/wo-wann-entsorgen/wertstoff","","","","","","X","X","","X","42923","X","POINT Z (2683451 1249245.9 0)"
"","Vogelsangstrasse 33","","","","","ERZ Entsorgung + Recycling Zürich","20.03.2023 00:00","","Tiefbau- und Entsorgungsdepartement (TED)","","","","","","","","","Sammelstelle","","Vogelsang vis-à-vis 33","","5003","","","","","","","","","","","","","","","Zürich","8006","sa42933","","1","","Sammelstelle, Sammelstellen, Glassammelstelle, Glassammelstellen, Altglas, Altöl, Recycling, Metall, Altmetall, Öl, Oel, Glas, Textilien, Wertstoff","044 417 77 77","","https://www.stadt-zuerich.ch/ted/de/index/entsorgung_recycling/entsorgen/wo-wann-entsorgen/wertstoff","","","","","","X","X","","X","42933","","POINT Z (2683858 1248655.9 0)"
"","Sonneggstrasse 26","","","","","ERZ Entsorgung + Recycling Zürich","20.03.2023 00:00","","Tiefbau- und Entsorgungsdepartement (TED)","","","","","","","","","Sammelstelle","","Sonneggstrasse 26","","5004","","","","","","","","","","","","","","","Zürich","8006","sa42934","","1","","Sammelstelle, Sammelstellen, Glassammelstelle, Glassammelstellen, Altglas, Altöl, Recycling, Metall, Altmetall, Öl, Oel, Glas, Textilien, Wertstoff","044 417 77 77","","https://www.stadt-zuerich.ch/ted/de/index/entsorgung_recycling/entsorgen/wo-wann-entsorgen/wertstoff","","","","","","X","X","","X","42934","","POINT Z (2683669 1248260.9 0)"
"","Weinbergstrasse 131","","","","","ERZ Entsorgung + Recycling Zürich","20.03.2023 00:00","","Tiefbau- und Entsorgungsdepartement (TED)","","","","","","","","","Sammelstelle","","Weinbergstrasse 131","","5005","","","","","","","","","","","","","","","Zürich","8006","sa42921","","1","","Sammelstelle, Sammelstellen, Glassammelstelle, Glassammelstellen, Altglas, Altöl, Recycling, Metall, Altmetall, Öl, Oel, Glas, Textilien, Wertstoff","044 417 77 77","","https://www.stadt-zuerich.ch/ted/de/index/entsorgung_recycling/entsorgen/wo-wann-entsorgen/wertstoff","","","","","","X","X","X","X","42921","","POINT Z (2683214 1249132.9 0)"
"","Ottikerstrasse 61","","","","","ERZ Entsorgung + Recycling Zürich","20.03.2023 00:00","","Tiefbau- und Entsorgungsdepartement (TED)","","","","","","","","","Sammelstelle","","Ottikerstrasse vis-à-vis 61","","5006","","","","","","","","","","","","","","","Zürich","8006","sa42930","","1","","Sammelstelle, Sammelstellen, Glassammelstelle, Glassammelstellen, Altglas, Altöl, Recycling, Metall, Altmetall, Öl, Oel, Glas, Textilien, Wertstoff","044 417 77 77","","https://www.stadt-zuerich.ch/ted/de/index/entsorgung_recycling/entsorgen/wo-wann-entsorgen/wertstoff","","","","","","X","X","","X","42930","X","POINT Z (2683745 1248830.9 0)"
"","Kronwiesenstrasse 29","","","","","ERZ Entsorgung + Recycling Zürich","20.03.2023 00:00","","Tiefbau- und Entsorgungsdepartement (TED)","","","","","","","","","Sammelstelle","","Kronwiesenstrasse 29","","5007","","","","","","","","","","","","","","","Zürich","8051","sa43042","","1","","Sammelstelle, Sammelstellen, Glassammelstelle, Glassammelstellen, Altglas, Altöl, Recycling, Metall, Altmetall, Öl, Oel, Glas, Textilien, Wertstoff","044 417 77 77","","https://www.stadt-zuerich.ch/ted/de/index/entsorgung_recycling/entsorgen/wo-wann-entsorgen/wertstoff","","","","","","X","X","","X","43042","","POINT Z (2686040 1250981.9 0)"
"","Giesshübelstrasse 106","","","","","ERZ Entsorgung + Recycling Zürich","20.03.2023 00:00","","Tiefbau- und Entsorgungsdepartement (TED)","","","","","","","","","Sammelstelle","","Giesshübelstr. vis-à-vis 106","","5008","","","","","","","","","","","","","","","Zürich","8045","sa42817","","1","","Sammelstelle, Sammelstellen, Glassammelstelle, Glassammelstellen, Altglas, Altöl, Recycling, Metall, Altmetall, Öl, Oel, Glas, Textilien, Wertstoff","044 417 77 77","","https://www.stadt-zuerich.ch/ted/de/index/entsorgung_recycling/entsorgen/wo-wann-entsorgen/wertstoff","","","","","","X","X","X","X","42817","","POINT Z (2681487.8 1245860.6 0)"
"","Geroldstrasse 35","","","","","ERZ Entsorgung + Recycling Zürich","20.03.2023 00:00","","Tiefbau- und Entsorgungsdepartement (TED)","","","","","","","","","Sammelstelle","","Geroldstrasse 35","","5009","","","","","","","","","","","","","","","Zürich","8005","sa66450","","1","","Sammelstelle, Sammelstellen, Glassammelstelle, Glassammelstellen, Altglas, Altöl, Recycling, Metall, Altmetall, Öl, Oel, Glas, Textilien, Wertstoff","044 417 77 77","","https://www.stadt-zuerich.ch/ted/de/index/entsorgung_recycling/entsorgen/wo-wann-entsorgen/wertstoff","","","","","","X","X","","X","66450","","POINT Z (2681508.8 1248922.5 0)"
"","Sportweg 39","","","","","ERZ Entsorgung + Recycling Zürich","20.03.2023 00:00","","Tiefbau- und Entsorgungsdepartement (TED)","","","","","","","","","Sammelstelle","","Sportweg 39","","5010","","","","","","","","","","","","","","","Zürich","8005","sa61042","","1","","Sammelstelle, Sammelstellen, Glassammelstelle, Glassammelstellen, Altglas, Altöl, Recycling, Metall, Altmetall, Öl, Oel, Glas, Textilien, Wertstoff","044 417 77 77","","https://www.stadt-zuerich.ch/ted/de/index/entsorgung_recycling/entsorgen/wo-wann-entsorgen/wertstoff","","","","","","X","X","","X","61042","","POINT Z (2680566.5 1249551.5 0)"
"","Bocklerstrasse 14","","","","","ERZ Entsorgung + Recycling Zürich","20.03.2023 00:00","","Tiefbau- und Entsorgungsdepartement (TED)","","","","","","","","","Sammelstelle","","Bocklerstrasse vis-à-vis 14","","5011","","","","","","","","","","","","","","","Zürich","8051","sa43034","","1","","Sammelstelle, Sammelstellen, Glassammelstelle, Glassammelstellen, Altglas, Altöl, Recycling, Metall, Altmetall, Öl, Oel, Glas, Textilien, Wertstoff","044 417 77 77","","https://www.stadt-zuerich.ch/ted/de/index/entsorgung_recycling/entsorgen/wo-wann-entsorgen/wertstoff","","","","","","X","X","X","X","43034","","POINT Z (2685431 1250918.9 0)"
"","Mühlebachstrasse 200","","","","","ERZ Entsorgung + Recycling Zürich","20.03.2023 00:00","","Tiefbau- und Entsorgungsdepartement (TED)","","","","","","","","","Sammelstelle","","Mühlebachstrasse 200","","5012","","","","","","","","","","","","","","","Zürich","8008","sa42894","","1","","Sammelstelle, Sammelstellen, Glassammelstelle, Glassammelstellen, Altglas, Altöl, Recycling, Metall, Altmetall, Öl, Oel, Glas, Textilien, Wertstoff","044 417 77 77","","https://www.stadt-zuerich.ch/ted/de/index/entsorgung_recycling/entsorgen/wo-wann-entsorgen/wertstoff","","","","","","X","X","","X","42894","","POINT Z (2684743 1245482.9 0)"
"","Seefeldstrasse 152","","","","","ERZ Entsorgung + Recycling Zürich","20.03.2023 00:00","","Tiefbau- und Entsorgungsdepartement (TED)","","","","","","","","","Sammelstelle","","Seefeldstrasse 152","","5013","","","","","","","","","","","","","","","Zürich","8008","sa43033","","1","","Sammelstelle, Sammelstellen, Glassammelstelle, Glassammelstellen, Altglas, Altöl, Recycling, Metall, Altmetall, Öl, Oel, Glas, Textilien, Wertstoff","044 417 77 77","","https://www.stadt-zuerich.ch/ted/de/index/entsorgung_recycling/entsorgen/wo-wann-entsorgen/wertstoff","","","","","","X","X","X","X","43033","X","POINT Z (2684369 1245694.9 0)"
"","Mühlebachstrasse 35","","","","","ERZ Entsorgung + Recycling Zürich","20.03.2023 00:00","","Tiefbau- und Entsorgungsdepartement (TED)","","","","","","","","","Sammelstelle","","Mühlebachstrasse 35","","5014","","","","","","","","","","","","","","","Zürich","8008","sa45746","","1","","Sammelstelle, Sammelstellen, Glassammelstelle, Glassammelstellen, Altglas, Altöl, Recycling, Metall, Altmetall, Öl, Oel, Glas, Textilien, Wertstoff","044 417 77 77","","https://www.stadt-zuerich.ch/ted/de/index/entsorgung_recycling/entsorgen/wo-wann-entsorgen/wertstoff","","","","","","X","X","X","X","45746","","POINT Z (2684012.5 1246564.9 0)"
"","Höschgasse 4","","","","","ERZ Entsorgung + Recycling Zürich","20.03.2023 00:00","","Tiefbau- und Entsorgungsdepartement (TED)","","","","","","","","","Sammelstelle","","Höschgasse 4","","5015","","","","","","","","","","","","","","","Zürich","8008","sa46854","","1","","Sammelstelle, Sammelstellen, Glassammelstelle, Glassammelstellen, Altglas, Altöl, Recycling, Metall, Altmetall, Öl, Oel, Glas, Textilien, Wertstoff","044 417 77 77","","https://www.stadt-zuerich.ch/ted/de/index/entsorgung_recycling/entsorgen/wo-wann-entsorgen/wertstoff","","","","","","","X","","","46854","","POINT Z (2683950.5 1245605.6 0)"
"","Rousseaustrasse 101","","","","","ERZ Entsorgung + Recycling Zürich","20.03.2023 00:00","","Tiefbau- und Entsorgungsdepartement (TED)","","","","","","","","","Sammelstelle","","Rousseaustrasse vis-à-vis 101","","5093","","","","","","","","","","","","","","","Zürich","8037","sa42998","","1","","Sammelstelle, Sammelstellen, Glassammelstelle, Glassammelstellen, Altglas, Altöl, Recycling, Metall, Altmetall, Öl, Oel, Glas, Textilien, Wertstoff","044 417 77 77","","https://www.stadt-zuerich.ch/ted/de/index/entsorgung_recycling/entsorgen/wo-wann-entsorgen/wertstoff","","","","","","X","X","X","X","42998","","POINT Z (2682400 1249707.9 0)"
"","Rebbergstrasse 19","","","","","ERZ Entsorgung + Recycling Zürich","20.03.2023 00:00","","Tiefbau- und Entsorgungsdepartement (TED)","","","","","","","","","Sammelstelle","","Rebbergstrasse vis-à-vis 19","","5094","","","","","","","","","","","","","","","Zürich","8037","sa43003","","1","","Sammelstelle, Sammelstellen, Glassammelstelle, Glassammelstellen, Altglas, Altöl, Recycling, Metall, Altmetall, Öl, Oel, Glas, Textilien, Wertstoff","044 417 77 77","","https://www.stadt-zuerich.ch/ted/de/index/entsorgung_recycling/entsorgen/wo-wann-entsorgen/wertstoff","","","","","","X","X","","X","43003","","POINT Z (2681339 1250265.9 0)"
"","Rosengartenstrasse 10","","","","","ERZ Entsorgung + Recycling Zürich","20.03.2023 00:00","","Tiefbau- und Entsorgungsdepartement (TED)","","","","","","","","","Sammelstelle","","Rosengartenstrasse 10","","5095","","","","","","","","","","","","","","","Zürich","8037","sa43002","","1","","Sammelstelle, Sammelstellen, Glassammelstelle, Glassammelstellen, Altglas, Altöl, Recycling, Metall, Altmetall, Öl, Oel, Glas, Textilien, Wertstoff","044 417 77 77","","https://www.stadt-zuerich.ch/ted/de/index/entsorgung_recycling/entsorgen/wo-wann-entsorgen/wertstoff","","","","","","X","X","","X","43002","","POINT Z (2682041 1249826.9 0)"
"","Hönggerstrasse 41","","","","","ERZ Entsorgung + Recycling Zürich","20.03.2023 00:00","","Tiefbau- und Entsorgungsdepartement (TED)","","","","","","","","","Sammelstelle","","Hönggerstrasse vis-à-vis 41","","5096","","","","","","","","","","","","","","","Zürich","8037","sa42999","","1","","Sammelstelle, Sammelstellen, Glassammelstelle, Glassammelstellen, Altglas, Altöl, Recycling, Metall, Altmetall, Öl, Oel, Glas, Textilien, Wertstoff","044 417 77 77","","https://www.stadt-zuerich.ch/ted/de/index/entsorgung_recycling/entsorgen/wo-wann-entsorgen/wertstoff","","","","","","X","X","","X","42999","X","POINT Z (2682057 1249545.9 0)"
"","Idaplatz 4","","","","","ERZ Entsorgung + Recycling Zürich","20.03.2023 00:00","","Tiefbau- und Entsorgungsdepartement (TED)","","","","","","","","","Sammelstelle","","Idaplatz 4","","5097","","","","","","","","","","","","","","","Zürich","8003","sa42831","","1","","Sammelstelle, Sammelstellen, Glassammelstelle, Glassammelstellen, Altglas, Altöl, Recycling, Metall, Altmetall, Öl, Oel, Glas, Textilien, Wertstoff","044 417 77 77","","https://www.stadt-zuerich.ch/ted/de/index/entsorgung_recycling/entsorgen/wo-wann-entsorgen/wertstoff","","","","","","X","X","","X","42831","X","POINT Z (2681243 1247607.9 0)"
"","Zürichbergstrasse 80","","","","","ERZ Entsorgung + Recycling Zürich","20.03.2023 00:00","","Tiefbau- und Entsorgungsdepartement (TED)","","","","","","","","","Sammelstelle","","Zürichbergstrasse vis-à-vis 80","","5098","","","","","","","","","","","","","","","Zürich","8044","sa42962","","1","","Sammelstelle, Sammelstellen, Glassammelstelle, Glassammelstellen, Altglas, Altöl, Recycling, Metall, Altmetall, Öl, Oel, Glas, Textilien, Wertstoff","044 417 77 77","","https://www.stadt-zuerich.ch/ted/de/index/entsorgung_recycling/entsorgen/wo-wann-entsorgen/wertstoff","","","","","","X","X","X","X","42962","","POINT Z (2684696 1247918.9 0)"
"","Schlossgasse 22","","","","","ERZ Entsorgung + Recycling Zürich","20.03.2023 00:00","","Tiefbau- und Entsorgungsdepartement (TED)","","","","","","","","","Sammelstelle","","Schlossgasse vis-à-vis 22","","5099","","","","","","","","","","","","","","","Zürich","8003","sa42820","","1","","Sammelstelle, Sammelstellen, Glassammelstelle, Glassammelstellen, Altglas, Altöl, Recycling, Metall, Altmetall, Öl, Oel, Glas, Textilien, Wertstoff","044 417 77 77","","https://www.stadt-zuerich.ch/ted/de/index/entsorgung_recycling/entsorgen/wo-wann-entsorgen/wertstoff","","","","","","X","X","","","42820","","POINT Z (2681622 1246975.9 0)"
"","Lehenstrasse 65","","","","","ERZ Entsorgung + Recycling Zürich","20.03.2023 00:00","","Tiefbau- und Entsorgungsdepartement (TED)","","","","","","","","","Sammelstelle","","Lehenstrasse 65","","5100","","","","","","","","","","","","","","","Zürich","8037","sa43004","","1","","Sammelstelle, Sammelstellen, Glassammelstelle, Glassammelstellen, Altglas, Altöl, Recycling, Metall, Altmetall, Öl, Oel, Glas, Textilien, Wertstoff","044 417 77 77","","https://www.stadt-zuerich.ch/ted/de/index/entsorgung_recycling/entsorgen/wo-wann-entsorgen/wertstoff","","","","","","X","X","","X","43004","","POINT Z (2681723 1250074.9 0)"
"","Zentralstrasse 76","","","","","ERZ Entsorgung + Recycling Zürich","20.03.2023 00:00","","Tiefbau- und Entsorgungsdepartement (TED)","","","","","","","","","Sammelstelle","","Zentralstrasse vis-à-vis 76","","5101","","","","","","","","","","","","","","","Zürich","8003","sa42830","","1","","Sammelstelle, Sammelstellen, Glassammelstelle, Glassammelstellen, Altglas, Altöl, Recycling, Metall, Altmetall, Öl, Oel, Glas, Textilien, Wertstoff","044 417 77 77","","https://www.stadt-zuerich.ch/ted/de/index/entsorgung_recycling/entsorgen/wo-wann-entsorgen/wertstoff","","","","","","X","X","X","X","42830","","POINT Z (2681486.5 1247499.1 0)"
"","Wasserwerkstrasse 109","","","","","ERZ Entsorgung + Recycling Zürich","20.03.2023 00:00","","Tiefbau- und Entsorgungsdepartement (TED)","","","","","","","","","Sammelstelle","","Wasserwerkstrasse 109","","5102","","","","","","","","","","","","","","","Zürich","8037","sa59225","","1","","Sammelstelle, Sammelstellen, Glassammelstelle, Glassammelstellen, Altglas, Altöl, Recycling, Metall, Altmetall, Öl, Oel, Glas, Textilien, Wertstoff","044 417 77 77","","https://www.stadt-zuerich.ch/ted/de/index/entsorgung_recycling/entsorgen/wo-wann-entsorgen/wertstoff","","","","","","X","X","X","X","59225","","POINT Z (2682537.5 1249156.1 0)"
"","Fronwaldstrasse 94","","","","","ERZ Entsorgung + Recycling Zürich","20.03.2023 00:00","","Tiefbau- und Entsorgungsdepartement (TED)","","","","","","","","","Sammelstelle","","Fronwaldstrasse vis à vis 94","","5103","","","","","","","","","","","","","","","Zürich","8046","sa67606","","1","","Sammelstelle, Sammelstellen, Glassammelstelle, Glassammelstellen, Altglas, Altöl, Recycling, Metall, Altmetall, Öl, Oel, Glas, Textilien, Wertstoff","044 417 77 77","","https://www.stadt-zuerich.ch/ted/de/index/entsorgung_recycling/entsorgen/wo-wann-entsorgen/wertstoff","","","","","","X","X","","X","67606","","POINT Z (2681076.2 1252799.1 0)"
"","Wehntalerstrasse 597","","","","","ERZ Entsorgung + Recycling Zürich","20.03.2023 00:00","","Tiefbau- und Entsorgungsdepartement (TED)","","","","","","","","","Sammelstelle","","Wehntalerstrasse 597","","5104","","","","","","","","","","","","","","","Zürich","8046","sa43009","","1","","Sammelstelle, Sammelstellen, Glassammelstelle, Glassammelstellen, Altglas, Altöl, Recycling, Metall, Altmetall, Öl, Oel, Glas, Textilien, Wertstoff","044 417 77 77","","https://www.stadt-zuerich.ch/ted/de/index/entsorgung_recycling/entsorgen/wo-wann-entsorgen/wertstoff","","","","","","X","X","","X","43009","","POINT Z (2680163 1252810.9 0)"
"","Georg-Kempf-Strasse 53","","","","","ERZ Entsorgung + Recycling Zürich","20.03.2023 00:00","","Tiefbau- und Entsorgungsdepartement (TED)","","","","","","","","","Sammelstelle","","Georg-Kempf-Strasse 53","","5105","","","","","","","","","","","","","","","Zürich","8046","sa43008","","1","","Sammelstelle, Sammelstellen, Glassammelstelle, Glassammelstellen, Altglas, Altöl, Recycling, Metall, Altmetall, Öl, Oel, Glas, Textilien, Wertstoff","044 417 77 77","","https://www.stadt-zuerich.ch/ted/de/index/entsorgung_recycling/entsorgen/wo-wann-entsorgen/wertstoff","","","","","","X","X","","X","43008","","POINT Z (2680008 1252785.9 0)"
"","Lerchenhalde 53","","","","","ERZ Entsorgung + Recycling Zürich","20.03.2023 00:00","","Tiefbau- und Entsorgungsdepartement (TED)","","","","","","","","","Sammelstelle","","Lerchenhalde vis à vis 53","","5106","","","","","","","","","","","","","","","Zürich","8046","sa65116","","1","","Sammelstelle, Sammelstellen, Glassammelstelle, Glassammelstellen, Altglas, Altöl, Recycling, Metall, Altmetall, Öl, Oel, Glas, Textilien, Wertstoff","044 417 77 77","","https://www.stadt-zuerich.ch/ted/de/index/entsorgung_recycling/entsorgen/wo-wann-entsorgen/wertstoff","","","","","","X","X","","X","65116","X","POINT Z (2680811 1252101.2 0)"
"","Grütlistrasse 4","","","","","ERZ Entsorgung + Recycling Zürich","20.03.2023 00:00","","Tiefbau- und Entsorgungsdepartement (TED)","","","","","","","","","Sammelstelle","","Grütlstrasse 4","","5184","","","","","","","","","","","","","","","Zürich","8002","sa42816","","1","","Sammelstelle, Sammelstellen, Glassammelstelle, Glassammelstellen, Altglas, Altöl, Recycling, Metall, Altmetall, Öl, Oel, Glas, Textilien, Wertstoff","044 417 77 77","","https://www.stadt-zuerich.ch/ted/de/index/entsorgung_recycling/entsorgen/wo-wann-entsorgen/wertstoff","","","","","","X","X","","X","42816","","POINT Z (2682459 1246511.9 0)"
"","Mühlackerstrasse 122","","","","","ERZ Entsorgung + Recycling Zürich","20.03.2023 00:00","","Tiefbau- und Entsorgungsdepartement (TED)","","","","","","","","","Sammelstelle","","Mühlackerstrasse 122","","5185","","","","","","","","","","","","","","","Zürich","8046","sa43904","","1","","Sammelstelle, Sammelstellen, Glassammelstelle, Glassammelstellen, Altglas, Altöl, Recycling, Metall, Altmetall, Öl, Oel, Glas, Textilien, Wertstoff","044 417 77 77","","https://www.stadt-zuerich.ch/ted/de/index/entsorgung_recycling/entsorgen/wo-wann-entsorgen/wertstoff","","","","","","","X","X","X","43904","","POINT Z (2679797 1253342.9 0)"
"","Fritschistrasse 11","","","","","ERZ Entsorgung + Recycling Zürich","20.03.2023 00:00","","Tiefbau- und Entsorgungsdepartement (TED)","","","","","","","","","Sammelstelle","","Fritschistrasse vis-à-vis 11","","5186","","","","","","","","","","","","","","","Zürich","8003","sa42832","","1","","Sammelstelle, Sammelstellen, Glassammelstelle, Glassammelstellen, Altglas, Altöl, Recycling, Metall, Altmetall, Öl, Oel, Glas, Textilien, Wertstoff","044 417 77 77","","https://www.stadt-zuerich.ch/ted/de/index/entsorgung_recycling/entsorgen/wo-wann-entsorgen/wertstoff","","","","","","X","X","","X","42832","","POINT Z (2681115 1247792.9 0)"
"","Letzigraben 26","","","","","ERZ Entsorgung + Recycling Zürich","20.03.2023 00:00","","Tiefbau- und Entsorgungsdepartement (TED)","","","","","","","","","Sammelstelle","","Letzigraben 26","","5187","","","","","","","","","","","","","","","Zürich","8003","sa62133","","1","","Sammelstelle, Sammelstellen, Glassammelstelle, Glassammelstellen, Altglas, Altöl, Recycling, Metall, Altmetall, Öl, Oel, Glas, Textilien, Wertstoff","044 417 77 77","","https://www.stadt-zuerich.ch/ted/de/index/entsorgung_recycling/entsorgen/wo-wann-entsorgen/wertstoff","","","","","","X","X","","X","62133","X","POINT Z (2680290.8 1248256.8 0)"
"","Klopstockstrasse 23","","","","","ERZ Entsorgung + Recycling Zürich","20.03.2023 00:00","","Tiefbau- und Entsorgungsdepartement (TED)","","","","","","","","","Sammelstelle","","Klopstockstrasse 23","","5188","","","","","","","","","","","","","","","Zürich","8002","sa42812","","1","","Sammelstelle, Sammelstellen, Glassammelstelle, Glassammelstellen, Altglas, Altöl, Recycling, Metall, Altmetall, Öl, Oel, Glas, Textilien, Wertstoff","044 417 77 77","","https://www.stadt-zuerich.ch/ted/de/index/entsorgung_recycling/entsorgen/wo-wann-entsorgen/wertstoff","","","","","","X","X","X","X","42812","","POINT Z (2682105 1246214.9 0)"
"","Glaubtenstrasse 98","","","","","ERZ Entsorgung + Recycling Zürich","20.03.2023 00:00","","Tiefbau- und Entsorgungsdepartement (TED)","","","","","","","","","Sammelstelle","","Glaubtenstrasse 98","","5189","","","","","","","","","","","","","","","Zürich","8046","sa43006","","1","","Sammelstelle, Sammelstellen, Glassammelstelle, Glassammelstellen, Altglas, Altöl, Recycling, Metall, Altmetall, Öl, Oel, Glas, Textilien, Wertstoff","044 417 77 77","","https://www.stadt-zuerich.ch/ted/de/index/entsorgung_recycling/entsorgen/wo-wann-entsorgen/wertstoff","","","","","","X","X","","X","43006","","POINT Z (2681077 1251780.9 0)"
"","Bertastrasse 59","","","","","ERZ Entsorgung + Recycling Zürich","20.03.2023 00:00","","Tiefbau- und Entsorgungsdepartement (TED)","","","","","","","","","Sammelstelle","","Bertastrasse vis à -vis 59","","5190","","","","","","","","","","","","","","","Zürich","8003","sa42834","","1","","Sammelstelle, Sammelstellen, Glassammelstelle, Glassammelstellen, Altglas, Altöl, Recycling, Metall, Altmetall, Öl, Oel, Glas, Textilien, Wertstoff","044 417 77 77","","https://www.stadt-zuerich.ch/ted/de/index/entsorgung_recycling/entsorgen/wo-wann-entsorgen/wertstoff","","","","","","X","X","","","42834","X","POINT Z (2681051 1247455.9 0)"
"","Wolfswinkel 41","","","","","ERZ Entsorgung + Recycling Zürich","20.03.2023 00:00","","Tiefbau- und Entsorgungsdepartement (TED)","","","","","","","","","Sammelstelle","","Wolfswinkel vis à vis 41","","5191","","","","","","","","","","","","","","","Zürich","8046","sa65903","","1","","Sammelstelle, Sammelstellen, Glassammelstelle, Glassammelstellen, Altglas, Altöl, Recycling, Metall, Altmetall, Öl, Oel, Glas, Textilien, Wertstoff","044 417 77 77","","https://www.stadt-zuerich.ch/ted/de/index/entsorgung_recycling/entsorgen/wo-wann-entsorgen/wertstoff","","","","","","X","X","","","65903","X","POINT Z (2680867.5 1253269.5 0)"
"","Am Schanzengraben 25","","","","","ERZ Entsorgung + Recycling Zürich","20.03.2023 00:00","","Tiefbau- und Entsorgungsdepartement (TED)","","","","","","","","","Sammelstelle","","Am Schanzengraben 25","","5192","","","","","","","","","","","","","","","Zürich","8002","sa61197","","1","","Sammelstelle, Sammelstellen, Glassammelstelle, Glassammelstellen, Altglas, Altöl, Recycling, Metall, Altmetall, Öl, Oel, Glas, Textilien, Wertstoff","044 417 77 77","","https://www.stadt-zuerich.ch/ted/de/index/entsorgung_recycling/entsorgen/wo-wann-entsorgen/wertstoff","","","","","","X","X","","X","61197","","POINT Z (2682812 1247029.4 0)"
"","Milchbuckstrasse 2","","","","","ERZ Entsorgung + Recycling Zürich","20.03.2023 00:00","","Tiefbau- und Entsorgungsdepartement (TED)","","","","","","","","","Sammelstelle","","Milchbuckstrasse 2","","5193","","","","","","","","","","","","","","","Zürich","8057","sa42924","","1","","Sammelstelle, Sammelstellen, Glassammelstelle, Glassammelstellen, Altglas, Altöl, Recycling, Metall, Altmetall, Öl, Oel, Glas, Textilien, Wertstoff","044 417 77 77","","https://www.stadt-zuerich.ch/ted/de/index/entsorgung_recycling/entsorgen/wo-wann-entsorgen/wertstoff","","","","","","X","X","","X","42924","","POINT Z (2683165 1249970.9 0)"
"","Anna-Heer-Strasse 14","","","","","ERZ Entsorgung + Recycling Zürich","20.03.2023 00:00","","Tiefbau- und Entsorgungsdepartement (TED)","","","","","","","","","Sammelstelle","","Anna-Heer-Strasse vis-à-vis 14","","5194","","","","","","","","","","","","","","","Zürich","8057","sa42926","","1","","Sammelstelle, Sammelstellen, Glassammelstelle, Glassammelstellen, Altglas, Altöl, Recycling, Metall, Altmetall, Öl, Oel, Glas, Textilien, Wertstoff","044 417 77 77","","https://www.stadt-zuerich.ch/ted/de/index/entsorgung_recycling/entsorgen/wo-wann-entsorgen/wertstoff","","","","","","X","X","","X","42926","","POINT Z (2683226 1250465.9 0)"
"","Hoffeld 46","","","","","ERZ Entsorgung + Recycling Zürich","20.03.2023 00:00","","Tiefbau- und Entsorgungsdepartement (TED)","","","","","","","","","Sammelstelle","","Hoffeld vis-à-vis 46","","5195","","","","","","","","","","","","","","","Zürich","8057","sa42929","","1","","Sammelstelle, Sammelstellen, Glassammelstelle, Glassammelstellen, Altglas, Altöl, Recycling, Metall, Altmetall, Öl, Oel, Glas, Textilien, Wertstoff","044 417 77 77","","https://www.stadt-zuerich.ch/ted/de/index/entsorgung_recycling/entsorgen/wo-wann-entsorgen/wertstoff","","","","","","X","X","X","X","42929","X","POINT Z (2682793 1251267.9 0)"
"","Gessnerallee 36","","","","","ERZ Entsorgung + Recycling Zürich","20.03.2023 00:00","","Tiefbau- und Entsorgungsdepartement (TED)","","","","","","","","","Sammelstelle","","Gessnerallee vis-à-vis 36","","5196","","","","","","","","","","","","","","","Zürich","8001","sa42621","","1","","Sammelstelle, Sammelstellen, Glassammelstelle, Glassammelstellen, Altglas, Altöl, Recycling, Metall, Altmetall, Öl, Oel, Glas, Textilien, Wertstoff","044 417 77 77","","https://www.stadt-zuerich.ch/ted/de/index/entsorgung_recycling/entsorgen/wo-wann-entsorgen/wertstoff","","","","","","X","X","","X","42621","","POINT Z (2682941 1247905.9 0)"
"","Ringstrasse 72","","","","","ERZ Entsorgung + Recycling Zürich","20.03.2023 00:00","","Tiefbau- und Entsorgungsdepartement (TED)","","","","","","","","","Sammelstelle","","Ringstrasse 72","","5197","","","","","","","","","","","","","","","Zürich","8057","sa42928","","1","","Sammelstelle, Sammelstellen, Glassammelstelle, Glassammelstellen, Altglas, Altöl, Recycling, Metall, Altmetall, Öl, Oel, Glas, Textilien, Wertstoff","044 417 77 77","","https://www.stadt-zuerich.ch/ted/de/index/entsorgung_recycling/entsorgen/wo-wann-entsorgen/wertstoff","","","","","","X","X","","X","42928","","POINT Z (2683138 1251044.9 0)"
"","Letzistrasse 50","","","","","ERZ Entsorgung + Recycling Zürich","20.03.2023 00:00","","Tiefbau- und Entsorgungsdepartement (TED)","","","","","","","","","Sammelstelle","","Letzistrasse vis-à-vis 50","","5276","","","","","","","","","","","","","","","Zürich","8057","sa42932","","1","","Sammelstelle, Sammelstellen, Glassammelstelle, Glassammelstellen, Altglas, Altöl, Recycling, Metall, Altmetall, Öl, Oel, Glas, Textilien, Wertstoff","044 417 77 77","","https://www.stadt-zuerich.ch/ted/de/index/entsorgung_recycling/entsorgen/wo-wann-entsorgen/wertstoff","","","","","","X","X","","X","42932","","POINT Z (2683903 1249678.9 0)"
"","Bahnhofquai 5","","","","","ERZ Entsorgung + Recycling Zürich","20.03.2023 00:00","","Tiefbau- und Entsorgungsdepartement (TED)","","","","","","","","","Sammelstelle","","Bahnhofquai vis-à-vis 5","","5277","","","","","","","","","","","","","","","Zürich","8001","sa41373","","1","","Sammelstelle, Sammelstellen, Glassammelstelle, Glassammelstellen, Altglas, Altöl, Recycling, Metall, Altmetall, Öl, Oel, Glas, Textilien, Wertstoff","044 417 77 77","","https://www.stadt-zuerich.ch/ted/de/index/entsorgung_recycling/entsorgen/wo-wann-entsorgen/wertstoff","","","","","","X","X","","X","41373","","POINT Z (2683341.5 1247821.9 0)"
"","Hirschengraben 13","","","","","ERZ Entsorgung + Recycling Zürich","20.03.2023 00:00","","Tiefbau- und Entsorgungsdepartement (TED)","","","","","","","","","Sammelstelle","","Hirschengraben 13","","5278","","","","","","","","","","","","","","","Zürich","8001","sa42620","","1","","Sammelstelle, Sammelstellen, Glassammelstelle, Glassammelstellen, Altglas, Altöl, Recycling, Metall, Altmetall, Öl, Oel, Glas, Textilien, Wertstoff","044 417 77 77","","https://www.stadt-zuerich.ch/ted/de/index/entsorgung_recycling/entsorgen/wo-wann-entsorgen/wertstoff","","","","","","X","X","","X","42620","","POINT Z (2683716 1247287.9 0)"
"","Utoquai 21","","","","","ERZ Entsorgung + Recycling Zürich","20.03.2023 00:00","","Tiefbau- und Entsorgungsdepartement (TED)","","","","","","","","","Sammelstelle","","Utoquai 21","","5279","","","","","","","","","","","","","","","Zürich","8001","sa46853","","1","","Sammelstelle, Sammelstellen, Glassammelstelle, Glassammelstellen, Altglas, Altöl, Recycling, Metall, Altmetall, Öl, Oel, Glas, Textilien, Wertstoff","044 417 77 77","","https://www.stadt-zuerich.ch/ted/de/index/entsorgung_recycling/entsorgen/wo-wann-entsorgen/wertstoff","","","","","","","X","","","46853","","POINT Z (2683599.5 1246636.9 0)"
"","Viktoriastrasse 34","","","","","ERZ Entsorgung + Recycling Zürich","20.03.2023 00:00","","Tiefbau- und Entsorgungsdepartement (TED)","","","","","","","","","Sammelstelle","","Viktoriastrasse 34","","5280","","","","","","","","","","","","","","","Zürich","8057","sa43021","","1","","Sammelstelle, Sammelstellen, Glassammelstelle, Glassammelstellen, Altglas, Altöl, Recycling, Metall, Altmetall, Öl, Oel, Glas, Textilien, Wertstoff","044 417 77 77","","https://www.stadt-zuerich.ch/ted/de/index/entsorgung_recycling/entsorgen/wo-wann-entsorgen/wertstoff","","","","","","X","X","","X","43021","","POINT Z (2683952 1251016.9 0)"
"","Zeppelinstrasse 43","","","","","ERZ Entsorgung + Recycling Zürich","20.03.2023 00:00","","Tiefbau- und Entsorgungsdepartement (TED)","","","","","","","","","Sammelstelle","","Zeppelinstrasse 43","","5281","","","","","","","","","","","","","","","Zürich","8057","sa42925","","1","","Sammelstelle, Sammelstellen, Glassammelstelle, Glassammelstellen, Altglas, Altöl, Recycling, Metall, Altmetall, Öl, Oel, Glas, Textilien, Wertstoff","044 417 77 77","","https://www.stadt-zuerich.ch/ted/de/index/entsorgung_recycling/entsorgen/wo-wann-entsorgen/wertstoff","","","","","","X","X","","","42925","","POINT Z (2682907 1250024.9 0)"
"","Im Waidegg 1","","","","","ERZ Entsorgung + Recycling Zürich","20.03.2023 00:00","","Tiefbau- und Entsorgungsdepartement (TED)","","","","","","","","","Sammelstelle","","Im Waidegg 1","","5282","","","","","","","","","","","","","","","Zürich","8057","sa43000","","1","","Sammelstelle, Sammelstellen, Glassammelstelle, Glassammelstellen, Altglas, Altöl, Recycling, Metall, Altmetall, Öl, Oel, Glas, Textilien, Wertstoff","044 417 77 77","","https://www.stadt-zuerich.ch/ted/de/index/entsorgung_recycling/entsorgen/wo-wann-entsorgen/wertstoff","","","","","","X","X","X","X","43000","","POINT Z (2682567 1250330.9 0)"
"","Mimosenstrasse 1","","","","","ERZ Entsorgung + Recycling Zürich","20.03.2023 00:00","","Tiefbau- und Entsorgungsdepartement (TED)","","","","","","","","","Sammelstelle","","Mimosenstrasse vis à vis 1","","5283","","","","","","","","","","","","","","","Zürich","8057","sa43026","","1","","Sammelstelle, Sammelstellen, Glassammelstelle, Glassammelstellen, Altglas, Altöl, Recycling, Metall, Altmetall, Öl, Oel, Glas, Textilien, Wertstoff","044 417 77 77","","https://www.stadt-zuerich.ch/ted/de/index/entsorgung_recycling/entsorgen/wo-wann-entsorgen/wertstoff","","","","","","X","X","","X","43026","","POINT Z (2683598 1250789.9 0)"
"","Langmauerstrasse 90","","","","","ERZ Entsorgung + Recycling Zürich","20.03.2023 00:00","","Tiefbau- und Entsorgungsdepartement (TED)","","","","","","","","","Sammelstelle","","Langmauerstrasse 90","","5284","","","","","","","","","","","","","","","Zürich","8057","sa42931","","1","","Sammelstelle, Sammelstellen, Glassammelstelle, Glassammelstellen, Altglas, Altöl, Recycling, Metall, Altmetall, Öl, Oel, Glas, Textilien, Wertstoff","044 417 77 77","","https://www.stadt-zuerich.ch/ted/de/index/entsorgung_recycling/entsorgen/wo-wann-entsorgen/wertstoff","","","","","","X","X","","X","42931","","POINT Z (2683499 1249789.9 0)"
"","Baumackerstrasse 28","","","","","ERZ Entsorgung + Recycling Zürich","20.03.2023 00:00","","Tiefbau- und Entsorgungsdepartement (TED)","","","","","","","","","Sammelstelle","","Baumackerstasse- vis-à-vis 28","","5285","","","","","","","","","","","","","","","Zürich","8050","sa43018","","1","","Sammelstelle, Sammelstellen, Glassammelstelle, Glassammelstellen, Altglas, Altöl, Recycling, Metall, Altmetall, Öl, Oel, Glas, Textilien, Wertstoff","044 417 77 77","","https://www.stadt-zuerich.ch/ted/de/index/entsorgung_recycling/entsorgen/wo-wann-entsorgen/wertstoff","","","","","","X","X","","X","43018","X","POINT Z (2683443 1251480.9 0)"
"","Wattstrasse 6","","","","","ERZ Entsorgung + Recycling Zürich","20.03.2023 00:00","","Tiefbau- und Entsorgungsdepartement (TED)","","","","","","","","","Sammelstelle","","Wattstrasse vis à vis 6","","5286","","","","","","","","","","","","","","","Zürich","8050","sa62242","","1","","Sammelstelle, Sammelstellen, Glassammelstelle, Glassammelstellen, Altglas, Altöl, Recycling, Metall, Altmetall, Öl, Oel, Glas, Textilien, Wertstoff","044 417 77 77","","https://www.stadt-zuerich.ch/ted/de/index/entsorgung_recycling/entsorgen/wo-wann-entsorgen/wertstoff","","","","","","X","X","","X","62242","","POINT Z (2683539.5 1251954.2 0)"
"","Schönleinstrasse 14","","","","","ERZ Entsorgung + Recycling Zürich","20.03.2023 00:00","","Tiefbau- und Entsorgungsdepartement (TED)","","","","","","","","","Sammelstelle","","Schönleinstrasse 14","","5287","","","","","","","","","","","","","","","Zürich","8032","sa42937","","1","","Sammelstelle, Sammelstellen, Glassammelstelle, Glassammelstellen, Altglas, Altöl, Recycling, Metall, Altmetall, Öl, Oel, Glas, Textilien, Wertstoff","044 417 77 77","","https://www.stadt-zuerich.ch/ted/de/index/entsorgung_recycling/entsorgen/wo-wann-entsorgen/wertstoff","","","","","","X","X","","X","42937","","POINT Z (2684087 1247621.9 0)"
"","Tramstrasse 55","","","","","ERZ Entsorgung + Recycling Zürich","20.03.2023 00:00","","Tiefbau- und Entsorgungsdepartement (TED)","","","","","","","","","Sammelstelle","","Tramstrasse 55","","5288","","","","","","","","","","","","","","","Zürich","8050","sa43020","","1","","Sammelstelle, Sammelstellen, Glassammelstelle, Glassammelstellen, Altglas, Altöl, Recycling, Metall, Altmetall, Öl, Oel, Glas, Textilien, Wertstoff","044 417 77 77","","https://www.stadt-zuerich.ch/ted/de/index/entsorgung_recycling/entsorgen/wo-wann-entsorgen/wertstoff","","","","","","X","X","","X","43020","","POINT Z (2684048 1251432.9 0)"
"","Oleanderstrasse 1","","","","","ERZ Entsorgung + Recycling Zürich","20.03.2023 00:00","","Tiefbau- und Entsorgungsdepartement (TED)","","","","","","","","","Sammelstelle","","Oleanderstrasse 1","","5289","","","","","","","","","","","","","","","Zürich","8050","sa43017","","1","","Sammelstelle, Sammelstellen, Glassammelstelle, Glassammelstellen, Altglas, Altöl, Recycling, Metall, Altmetall, Öl, Oel, Glas, Textilien, Wertstoff","044 417 77 77","","https://www.stadt-zuerich.ch/ted/de/index/entsorgung_recycling/entsorgen/wo-wann-entsorgen/wertstoff","","","","","","X","X","","X","43017","","POINT Z (2683135 1251641.9 0)"
"","Zimmerlistrasse 4","","","","","ERZ Entsorgung + Recycling Zürich","20.03.2023 00:00","","Tiefbau- und Entsorgungsdepartement (TED)","","","","","","","","","Sammelstelle","","Zimmerlistrasse vis-à-vis 4","","6247","","","","","","","","","","","","","","","Zürich","8004","sa42863","","1","","Sammelstelle, Sammelstellen, Glassammelstelle, Glassammelstellen, Altglas, Altöl, Recycling, Metall, Altmetall, Öl, Oel, Glas, Textilien, Wertstoff","044 417 77 77","","https://www.stadt-zuerich.ch/ted/de/index/entsorgung_recycling/entsorgen/wo-wann-entsorgen/wertstoff","","","","","","X","X","","X","42863","","POINT Z (2680919 1248648.9 0)"
"","Tellstrasse 31","","","","","ERZ Entsorgung + Recycling Zürich","20.03.2023 00:00","","Tiefbau- und Entsorgungsdepartement (TED)","","","","","","","","","Sammelstelle","","Tellstrasse 31","","6248","","","","","","","","","","","","","","","Zürich","8004","sa42861","","1","","Sammelstelle, Sammelstellen, Glassammelstelle, Glassammelstellen, Altglas, Altöl, Recycling, Metall, Altmetall, Öl, Oel, Glas, Textilien, Wertstoff","044 417 77 77","","https://www.stadt-zuerich.ch/ted/de/index/entsorgung_recycling/entsorgen/wo-wann-entsorgen/wertstoff","","","","","","X","X","X","X","42861","X","POINT Z (2682365 1248149.9 0)"
"","Albisriederplatz 6","","","","","ERZ Entsorgung + Recycling Zürich","20.03.2023 00:00","","Tiefbau- und Entsorgungsdepartement (TED)","","","","","","","","","Sammelstelle","","Albisriederplatz 6","","6249","","","","","","","","","","","","","","","Zürich","8004","sa42864","","1","","Sammelstelle, Sammelstellen, Glassammelstelle, Glassammelstellen, Altglas, Altöl, Recycling, Metall, Altmetall, Öl, Oel, Glas, Textilien, Wertstoff","044 417 77 77","","https://www.stadt-zuerich.ch/ted/de/index/entsorgung_recycling/entsorgen/wo-wann-entsorgen/wertstoff","","","","","","X","X","X","X","42864","X","POINT Z (2680970.5 1248148.6 0)"
"","Bullingerstrasse 41","","","","","ERZ Entsorgung + Recycling Zürich","20.03.2023 00:00","","Tiefbau- und Entsorgungsdepartement (TED)","","","","","","","","","Sammelstelle","","Bullingerstrasse 41","","6250","","","","","","","","","","","","","","","Zürich","8004","sa41375","","1","","Sammelstelle, Sammelstellen, Glassammelstelle, Glassammelstellen, Altglas, Altöl, Recycling, Metall, Altmetall, Öl, Oel, Glas, Textilien, Wertstoff","044 417 77 77","","https://www.stadt-zuerich.ch/ted/de/index/entsorgung_recycling/entsorgen/wo-wann-entsorgen/wertstoff","","","","","","X","X","","X","41375","X","POINT Z (2680984 1248360.9 0)"
"","Werdinsel 1","","","","","ERZ Entsorgung + Recycling Zürich","20.03.2023 00:00","","Tiefbau- und Entsorgungsdepartement (TED)","","","","","","","","","Sammelstelle","","Werdinsel vis à vis 1","","6341","","","","","","","","","","","","","","","Zürich","8049","sa64343","","1","","Sammelstelle, Sammelstellen, Glassammelstelle, Glassammelstellen, Altglas, Altöl, Recycling, Metall, Altmetall, Öl, Oel, Glas, Textilien, Wertstoff","044 417 77 77","","https://www.stadt-zuerich.ch/ted/de/index/entsorgung_recycling/entsorgen/wo-wann-entsorgen/wertstoff","","","","","","X","X","","X","64343","","POINT Z (2679248.5 1250399.9 0)"
"","Lagerstrasse 47","","","","","ERZ Entsorgung + Recycling Zürich","20.03.2023 00:00","","Tiefbau- und Entsorgungsdepartement (TED)","","","","","","","","","Sammelstelle","","Lagerstrasse 47","","6342","","","","","","","","","","","","","","","Zürich","8004","sa59038","","1","","Sammelstelle, Sammelstellen, Glassammelstelle, Glassammelstellen, Altglas, Altöl, Recycling, Metall, Altmetall, Öl, Oel, Glas, Textilien, Wertstoff","044 417 77 77","","https://www.stadt-zuerich.ch/ted/de/index/entsorgung_recycling/entsorgen/wo-wann-entsorgen/wertstoff","","","","","","X","X","","","59038","X","POINT Z (2682592 1248043 0)"
"","Erismannstrasse 31","","","","","ERZ Entsorgung + Recycling Zürich","20.03.2023 00:00","","Tiefbau- und Entsorgungsdepartement (TED)","","","","","","","","","Sammelstelle","","Erismannstrasse 31","","6343","","","","","","","","","","","","","","","Zürich","8004","sa42886","","1","","Sammelstelle, Sammelstellen, Glassammelstelle, Glassammelstellen, Altglas, Altöl, Recycling, Metall, Altmetall, Öl, Oel, Glas, Textilien, Wertstoff","044 417 77 77","","https://www.stadt-zuerich.ch/ted/de/index/entsorgung_recycling/entsorgen/wo-wann-entsorgen/wertstoff","","","","","","X","X","X","X","42886","X","POINT Z (2681533 1248122.1 0)"
"","Dübendorfstrasse 350","","","","","ERZ Entsorgung + Recycling Zürich","20.03.2023 00:00","","Tiefbau- und Entsorgungsdepartement (TED)","","","","","","","","","Sammelstelle","","Dübendorfstrasse 350","","6344","","","","","","","","","","","","","","","Zürich","8051","sa43044","","1","","Sammelstelle, Sammelstellen, Glassammelstelle, Glassammelstellen, Altglas, Altöl, Recycling, Metall, Altmetall, Öl, Oel, Glas, Textilien, Wertstoff","044 417 77 77","","https://www.stadt-zuerich.ch/ted/de/index/entsorgung_recycling/entsorgen/wo-wann-entsorgen/wertstoff","","","","","","X","X","","X","43044","","POINT Z (2687044 1250348.9 0)"
"","Merkurstrasse 4","","","","","ERZ Entsorgung + Recycling Zürich","20.03.2023 00:00","","Tiefbau- und Entsorgungsdepartement (TED)","","","","","","","","","Sammelstelle","","Merkurstrasse 4","","6345","","","","","","","","","","","","","","","Zürich","8032","sa42963","","1","","Sammelstelle, Sammelstellen, Glassammelstelle, Glassammelstellen, Altglas, Altöl, Recycling, Metall, Altmetall, Öl, Oel, Glas, Textilien, Wertstoff","044 417 77 77","","https://www.stadt-zuerich.ch/ted/de/index/entsorgung_recycling/entsorgen/wo-wann-entsorgen/wertstoff","","","","","","X","X","","","42963","","POINT Z (2684176 1246735.9 0)"
"","Bergstrasse 142","","","","","ERZ Entsorgung + Recycling Zürich","20.03.2023 00:00","","Tiefbau- und Entsorgungsdepartement (TED)","","","","","","","","","Sammelstelle","","Bergstrasse vis-à-vis 142","","6346","","","","","","","","","","","","","","","Zürich","8032","sa42973","","1","","Sammelstelle, Sammelstellen, Glassammelstelle, Glassammelstellen, Altglas, Altöl, Recycling, Metall, Altmetall, Öl, Oel, Glas, Textilien, Wertstoff","044 417 77 77","","https://www.stadt-zuerich.ch/ted/de/index/entsorgung_recycling/entsorgen/wo-wann-entsorgen/wertstoff","","","","","","X","X","X","X","42973","","POINT Z (2685139 1246721.9 0)"
"","Riedhofstrasse 104","","","","","ERZ Entsorgung + Recycling Zürich","20.03.2023 00:00","","Tiefbau- und Entsorgungsdepartement (TED)","","","","","","","","","Sammelstelle","","Riedhofstrasse vis-à-vis 104","","6347","","","","","","","","","","","","","","","Zürich","8049","sa42976","","1","","Sammelstelle, Sammelstellen, Glassammelstelle, Glassammelstellen, Altglas, Altöl, Recycling, Metall, Altmetall, Öl, Oel, Glas, Textilien, Wertstoff","044 417 77 77","","https://www.stadt-zuerich.ch/ted/de/index/entsorgung_recycling/entsorgen/wo-wann-entsorgen/wertstoff","","","","","","X","X","","X","42976","","POINT Z (2679405 1251030.9 0)"
"","Paul-Feyerabend-Hof 3","","","","","ERZ Entsorgung + Recycling Zürich","20.03.2023 00:00","","Tiefbau- und Entsorgungsdepartement (TED)","","","","","","","","","Sammelstelle","","Paul-Feyerabend-Hof vis-à-vis 3","","6348","","","","","","","","","","","","","","","Zürich","8049","sa61106","","1","","Sammelstelle, Sammelstellen, Glassammelstelle, Glassammelstellen, Altglas, Altöl, Recycling, Metall, Altmetall, Öl, Oel, Glas, Textilien, Wertstoff","044 417 77 77","","https://www.stadt-zuerich.ch/ted/de/index/entsorgung_recycling/entsorgen/wo-wann-entsorgen/wertstoff","","","","","","X","X","","X","61106","","POINT Z (2680551.8 1251296.8 0)"
"","Riedhofstrasse 9","","","","","ERZ Entsorgung + Recycling Zürich","20.03.2023 00:00","","Tiefbau- und Entsorgungsdepartement (TED)","","","","","","","","","Sammelstelle","","Riedhofstrasse 9","","6349","","","","","","","","","","","","","","","Zürich","8049","sa42974","","1","","Sammelstelle, Sammelstellen, Glassammelstelle, Glassammelstellen, Altglas, Altöl, Recycling, Metall, Altmetall, Öl, Oel, Glas, Textilien, Wertstoff","044 417 77 77","","https://www.stadt-zuerich.ch/ted/de/index/entsorgung_recycling/entsorgen/wo-wann-entsorgen/wertstoff","","","","","","X","X","X","X","42974","X","POINT Z (2679827 1250866.9 0)"
"","Im Stelzenacker 11","","","","","ERZ Entsorgung + Recycling Zürich","20.03.2023 00:00","","Tiefbau- und Entsorgungsdepartement (TED)","","","","","","","","","Sammelstelle","","Im Stelzenacker 11","","6350","","","","","","","","","","","","","","","Zürich","8049","sa42975","","1","","Sammelstelle, Sammelstellen, Glassammelstelle, Glassammelstellen, Altglas, Altöl, Recycling, Metall, Altmetall, Öl, Oel, Glas, Textilien, Wertstoff","044 417 77 77","","https://www.stadt-zuerich.ch/ted/de/index/entsorgung_recycling/entsorgen/wo-wann-entsorgen/wertstoff","","","","","","X","X","X","X","42975","","POINT Z (2678776 1252175.9 0)"
"","Luegislandstrasse 173","","","","","ERZ Entsorgung + Recycling Zürich","20.03.2023 00:00","","Tiefbau- und Entsorgungsdepartement (TED)","","","","","","","","","Sammelstelle","","Luegislandstrasse 173","","6351","","","","","","","","","","","","","","","Zürich","8051","sa43035","","1","","Sammelstelle, Sammelstellen, Glassammelstelle, Glassammelstellen, Altglas, Altöl, Recycling, Metall, Altmetall, Öl, Oel, Glas, Textilien, Wertstoff","044 417 77 77","","https://www.stadt-zuerich.ch/ted/de/index/entsorgung_recycling/entsorgen/wo-wann-entsorgen/wertstoff","","","","","","X","X","X","X","43035","","POINT Z (2685477 1251561.9 0)"
"","Schweighofstrasse 7","","","","","ERZ Entsorgung + Recycling Zürich","20.03.2023 00:00","","Tiefbau- und Entsorgungsdepartement (TED)","","","","","","","","","Sammelstelle","","Schweighofstrasse 7","","6352","","","","","","","","","","","","","","","Zürich","8045","sa42824","","1","","Sammelstelle, Sammelstellen, Glassammelstelle, Glassammelstellen, Altglas, Altöl, Recycling, Metall, Altmetall, Öl, Oel, Glas, Textilien, Wertstoff","044 417 77 77","","https://www.stadt-zuerich.ch/ted/de/index/entsorgung_recycling/entsorgen/wo-wann-entsorgen/wertstoff","","","","","","X","X","","X","42824","","POINT Z (2680989 1245416.9 0)"
"","Arbentalstrasse 329","","","","","ERZ Entsorgung + Recycling Zürich","20.03.2023 00:00","","Tiefbau- und Entsorgungsdepartement (TED)","","","","","","","","","Sammelstelle","","Arbentalstrasse 329","","6353","","","","","","","","","","","","","","","Zürich","8045","sa42826","","1","","Sammelstelle, Sammelstellen, Glassammelstelle, Glassammelstellen, Altglas, Altöl, Recycling, Metall, Altmetall, Öl, Oel, Glas, Textilien, Wertstoff","044 417 77 77","","https://www.stadt-zuerich.ch/ted/de/index/entsorgung_recycling/entsorgen/wo-wann-entsorgen/wertstoff","","","","","","X","X","","X","42826","","POINT Z (2680815 1245981.9 0)"
"","Hegianwandweg 75","","","","","ERZ Entsorgung + Recycling Zürich","20.03.2023 00:00","","Tiefbau- und Entsorgungsdepartement (TED)","","","","","","","","","Sammelstelle","","Hegianwandweg 75","","6354","","","","","","","","","","","","","","","Zürich","8045","sa42825","","1","","Sammelstelle, Sammelstellen, Glassammelstelle, Glassammelstellen, Altglas, Altöl, Recycling, Metall, Altmetall, Öl, Oel, Glas, Textilien, Wertstoff","044 417 77 77","","https://www.stadt-zuerich.ch/ted/de/index/entsorgung_recycling/entsorgen/wo-wann-entsorgen/wertstoff","","","","","","X","X","","X","42825","","POINT Z (2680854 1245548.9 0)"
